{"type":"FeatureCollection","features":[{"type":"Feature","properties":{"slug":"bulgaria","name_bg":"България","name_en":"Bulgaria","iso_a2":"BG","source":"OpenStreetMap contributors, ODbL 1.0 (union of oblasti.geojson and prior Natural Earth outline, difference of Natural Earth neighbour polygons)"},"geometry":{"type":"MultiPolygon","coordinates":[[[[22.364144,42.320984],[22.405795,42.321552],[22.423985,42.325893],[22.438454,42.340052],[22.454371,42.376768],[22.46977,42.391703],[22.485066,42.397155],[22.497572,42.399196],[22.508838,42.404932],[22.519483,42.420926],[22.533125,42.45759],[22.536536,42.47839],[22.532505,42.493402],[22.532505,42.493557],[22.524857,42.507665],[22.512145,42.519189],[22.481449,42.535622],[22.429669,42.571408],[22.425328,42.572855],[22.428842,42.592776],[22.441318,42.632891],[22.444552,42.64329],[22.449203,42.667965],[22.442072,42.681685],[22.468116,42.718324],[22.481449,42.727677],[22.482586,42.730675],[22.482896,42.733775],[22.482586,42.736824],[22.481449,42.739821],[22.466566,42.748529],[22.45313,42.763592],[22.429359,42.806122],[22.425845,42.809843],[22.427395,42.813615],[22.430446,42.817077],[22.436801,42.824286],[22.445482,42.830178],[22.470907,42.840125],[22.481449,42.84674],[22.497055,42.864413],[22.506047,42.870123],[22.516854,42.870306],[22.519793,42.870356],[22.53757,42.868341],[22.544494,42.871389],[22.544785,42.871706],[22.548768,42.876046],[22.549972,42.877358],[22.563615,42.884283],[22.5909,42.886892],[22.666244,42.871932],[22.679282,42.874283],[22.684624,42.875245],[22.688652,42.875972],[22.69663,42.87741],[22.727015,42.886892],[22.728074,42.887834],[22.738798,42.897383],[22.739579,42.898858],[22.745516,42.910069],[22.763189,42.958645],[22.76939,42.97128],[22.776418,42.979729],[22.788097,42.984897],[22.815796,42.989703],[22.828818,42.993449],[22.828921,42.993449],[22.829025,42.993501],[22.829025,42.993656],[22.834714,42.999611],[22.842254,43.007505],[22.884215,43.036651],[22.889486,43.044376],[22.896721,43.062721],[22.901682,43.069749],[22.910157,43.075279],[22.917591,43.077851],[22.927107,43.081144],[22.935271,43.085562],[22.938777,43.089472],[22.955632,43.108274],[22.974029,43.141192],[22.984571,43.174627],[22.982902,43.187318],[22.981367,43.198992],[22.964727,43.204418],[22.952344,43.206389],[22.931941,43.209636],[22.915531,43.212247],[22.897754,43.220335],[22.883802,43.230592],[22.857343,43.256947],[22.833159,43.274647],[22.826958,43.28139],[22.823857,43.289297],[22.820756,43.307539],[22.817139,43.315497],[22.80453,43.328984],[22.73301,43.381513],[22.724343,43.38606],[22.719367,43.388671],[22.702934,43.394045],[22.693219,43.394872],[22.674202,43.394148],[22.664694,43.396732],[22.658926,43.401295],[22.656529,43.403192],[22.645367,43.420297],[22.637822,43.426369],[22.62852,43.428255],[22.606919,43.427402],[22.596274,43.429159],[22.586766,43.43443],[22.57271,43.44815],[22.565785,43.453344],[22.532609,43.464842],[22.518863,43.474247],[22.509354,43.493341],[22.490647,43.540883],[22.478452,43.559229],[22.477625,43.564164],[22.478658,43.569176],[22.481449,43.574111],[22.482689,43.576695],[22.483103,43.579279],[22.482689,43.581734],[22.481449,43.584137],[22.478142,43.587573],[22.477108,43.591294],[22.478142,43.594911],[22.481449,43.598529],[22.481759,43.598942],[22.481966,43.599459],[22.481759,43.599975],[22.481449,43.600647],[22.473801,43.612998],[22.472871,43.635942],[22.466256,43.64912],[22.455921,43.656406],[22.426465,43.668214],[22.41396,43.676663],[22.404865,43.687179],[22.396906,43.699401],[22.390498,43.712449],[22.386054,43.725498],[22.385848,43.733817],[22.389568,43.750509],[22.388535,43.758286],[22.362593,43.780843],[22.349467,43.807921],[22.354738,43.829703],[22.367554,43.852751],[22.377063,43.883524],[22.379026,43.913496],[22.382024,43.918561],[22.391945,43.931867],[22.394529,43.936337],[22.396803,43.951944],[22.39732,43.980934],[22.399594,43.993336],[22.411789,44.006927],[22.43432,44.013955],[22.441893,44.014835],[22.451752,44.015981],[22.465885,44.017624],[22.481449,44.019433],[22.481644,44.019437],[22.50367,44.019898],[22.514935,44.030285],[22.522583,44.044703],[22.534159,44.057157],[22.554623,44.062428],[22.57519,44.061394],[22.592967,44.063926],[22.604749,44.079378],[22.604646,44.088163],[22.598134,44.109298],[22.597101,44.119065],[22.599065,44.130331],[22.6094,44.159941],[22.607953,44.159993],[22.605989,44.163145],[22.604852,44.168468],[22.606196,44.174566],[22.608573,44.175858],[22.624799,44.189397],[22.639992,44.207329],[22.648777,44.213995],[22.69164,44.228435],[22.906436,44.122889],[22.942609,44.111469],[22.988085,44.107025],[23.008307,44.100446],[23.030976,44.093072],[23.040071,44.062325],[23.023018,44.031629],[22.988085,44.017676],[22.966277,44.015557],[22.926486,44.006152],[22.905816,44.003982],[22.885869,43.994525],[22.874707,43.972046],[22.864883,43.941556],[22.862971,43.935624],[22.860361,43.927523],[22.850522,43.896986],[22.851039,43.874352],[22.863441,43.855412],[22.888763,43.839522],[22.919562,43.834225],[23.052551,43.84282],[23.131849,43.847945],[23.161924,43.857324],[23.196961,43.86275],[23.234478,43.877297],[23.325151,43.886592],[23.484695,43.880604],[23.592699,43.837429],[23.620854,43.83401],[23.636107,43.832158],[23.720753,43.845826],[23.742871,43.8427],[23.799922,43.818463],[24.149606,43.75472],[24.159383,43.752938],[24.336705,43.759251],[24.358234,43.760017],[24.375494,43.763867],[24.431201,43.794176],[24.466341,43.802418],[24.500137,43.799498],[24.661763,43.755657],[24.705603,43.743765],[24.752628,43.738804],[24.963675,43.749605],[25.0816,43.718935],[25.211308,43.711881],[25.252339,43.704646],[25.285405,43.690391],[25.28872,43.688962],[25.323033,43.669713],[25.35962,43.654287],[25.403131,43.65005],[25.426075,43.654391],[25.467417,43.667749],[25.48245,43.669715],[25.488759,43.67054],[25.533821,43.668679],[25.556558,43.670359],[25.575059,43.677387],[25.593869,43.680668],[25.616503,43.687748],[25.637897,43.697282],[25.653503,43.708134],[25.671384,43.717359],[25.732948,43.718781],[25.739596,43.718935],[25.781144,43.732009],[25.804399,43.759914],[25.806259,43.763661],[25.839332,43.788439],[25.869304,43.800893],[25.916433,43.844379],[25.924495,43.858616],[25.934003,43.870321],[26.054306,43.934322],[26.061644,43.949773],[26.079317,43.969049],[26.116214,43.998866],[26.150734,44.012405],[26.231453,44.027495],[26.310518,44.052609],[26.332335,44.054926],[26.415791,44.063789],[26.614168,44.084855],[26.647758,44.093382],[26.667808,44.095087],[26.677317,44.097051],[26.697212,44.106094],[26.708685,44.10811],[26.753695,44.10811],[26.789455,44.115965],[26.884126,44.156531],[27.001535,44.165109],[27.027476,44.177046],[27.100237,44.14449],[27.143836,44.138179],[27.164022,44.135257],[27.205553,44.129246],[27.226741,44.120719],[27.251132,44.122373],[27.252662,44.121519],[27.253077,44.121287],[27.269012,44.112399],[27.26431,44.089765],[27.285342,44.072453],[27.341669,44.053074],[27.353555,44.045271],[27.372882,44.020725],[27.383837,44.015092],[27.39622,44.015169],[27.397044,44.015174],[27.574523,44.016281],[27.633434,44.029768],[27.656275,44.023877],[27.676119,43.993543],[27.682515,43.987256],[27.710628,43.959621],[27.71107,43.959187],[27.721698,43.94874],[27.787327,43.960419],[27.790168,43.961578],[27.85647,43.988634],[27.912074,43.993336],[27.912074,43.993233],[27.935845,43.964398],[27.98101,43.84934],[28.014806,43.830039],[28.221254,43.761981],[28.228008,43.761133],[28.243997,43.759127],[28.259298,43.757207],[28.434574,43.735213],[28.437922,43.735354],[28.57838,43.741278],[28.577965,43.738683],[28.578953,43.738721],[28.577407,43.735188],[28.576182,43.727525],[28.575855,43.71468],[28.578131,43.708339],[28.576775,43.700771],[28.575486,43.700222],[28.574074,43.644774],[28.578986,43.636644],[28.573705,43.6303],[28.573505,43.622453],[28.57421,43.618308],[28.573382,43.617595],[28.57309,43.606147],[28.575531,43.593329],[28.585704,43.575832],[28.595876,43.563707],[28.601152,43.555228],[28.603439,43.552869],[28.604939,43.544608],[28.609256,43.541708],[28.605347,43.537934],[28.601319,43.522957],[28.603094,43.520658],[28.59664,43.51447],[28.597631,43.510847],[28.588816,43.501176],[28.585429,43.494506],[28.580391,43.483175],[28.578784,43.481417],[28.578461,43.48078],[28.560313,43.453843],[28.557687,43.45188],[28.556854,43.450039],[28.545178,43.435871],[28.5295,43.423525],[28.514296,43.414418],[28.49825,43.411155],[28.480865,43.390372],[28.474439,43.385549],[28.473888,43.384263],[28.473155,43.366848],[28.468075,43.371988],[28.46567,43.360439],[28.460344,43.373279],[28.450481,43.380699],[28.415871,43.387334],[28.387906,43.404382],[28.356142,43.410957],[28.358402,43.411323],[28.35575,43.4134],[28.349422,43.410104],[28.334108,43.416009],[28.308449,43.418226],[28.256014,43.40865],[28.248127,43.403165],[28.237457,43.405144],[28.223352,43.399332],[28.194662,43.397562],[28.176596,43.397312],[28.17113,43.403089],[28.163885,43.40047],[28.16851,43.403719],[28.164951,43.405241],[28.153639,43.405089],[28.112584,43.385231],[28.091563,43.363959],[28.087006,43.355251],[28.031098,43.248969],[28.030296,43.248005],[28.030208,43.247486],[28.029661,43.247242],[28.017589,43.232733],[28.014557,43.231076],[28.013623,43.228413],[28.015447,43.225984],[28.013785,43.224364],[28.013987,43.226448],[28.009079,43.224488],[28.010799,43.222226],[28.003536,43.218256],[28.005155,43.22056],[28.001735,43.221184],[27.996842,43.217902],[27.998148,43.216105],[27.996919,43.215508],[27.986957,43.216412],[27.989181,43.217533],[27.985294,43.219585],[27.979824,43.216933],[27.977728,43.218793],[27.965358,43.216357],[27.958157,43.211268],[27.942828,43.210837],[27.933092,43.203972],[27.927173,43.205042],[27.921606,43.196866],[27.921776,43.185772],[27.938731,43.1765],[27.942802,43.171944],[27.946032,43.171715],[27.946589,43.164912],[27.939961,43.135505],[27.931727,43.128523],[27.927802,43.119625],[27.924724,43.111508],[27.92344,43.100367],[27.915618,43.080065],[27.913464,43.072481],[27.913052,43.062318],[27.907887,43.056291],[27.904131,43.055722],[27.898966,43.051848],[27.888923,43.038974],[27.890425,42.998103],[27.894308,42.981485],[27.900401,42.962877],[27.903982,42.942288],[27.903849,42.940659],[27.906466,42.929459],[27.902537,42.924628],[27.900279,42.897039],[27.902215,42.887045],[27.8985,42.874519],[27.903982,42.859687],[27.901639,42.858363],[27.902806,42.854044],[27.892847,42.853395],[27.886835,42.849999],[27.883919,42.846614],[27.883556,42.831936],[27.891612,42.81037],[27.897146,42.784003],[27.897146,42.782657],[27.900751,42.772045],[27.900498,42.76665],[27.897146,42.76445],[27.897146,42.736233],[27.896544,42.73161],[27.900906,42.719386],[27.90029,42.700843],[27.893773,42.697736],[27.879807,42.700776],[27.841152,42.700514],[27.822844,42.704765],[27.808004,42.700928],[27.803779,42.703791],[27.793176,42.701986],[27.766017,42.705603],[27.770289,42.706474],[27.762767,42.708533],[27.729582,42.708119],[27.721786,42.700437],[27.719005,42.694566],[27.715831,42.683743],[27.71697,42.674506],[27.724132,42.666978],[27.739513,42.661078],[27.739016,42.661014],[27.741148,42.659816],[27.739639,42.658121],[27.729346,42.654396],[27.732302,42.657059],[27.728609,42.659159],[27.718635,42.65739],[27.71026,42.645497],[27.699799,42.651922],[27.693426,42.65147],[27.691156,42.650742],[27.67674,42.63567],[27.664266,42.639708],[27.653707,42.636011],[27.64764,42.638926],[27.635312,42.625253],[27.630986,42.606759],[27.631644,42.59954],[27.641449,42.574774],[27.650157,42.558051],[27.645945,42.55953],[27.64607,42.559338],[27.652586,42.556009],[27.650026,42.552387],[27.63899,42.551014],[27.642303,42.55341],[27.637464,42.55818],[27.620665,42.563964],[27.61059,42.564158],[27.606797,42.563487],[27.599716,42.557911],[27.594159,42.563559],[27.584456,42.564495],[27.557874,42.550494],[27.538057,42.559297],[27.521896,42.556883],[27.517837,42.552037],[27.517568,42.555162],[27.516996,42.552619],[27.514048,42.553763],[27.509237,42.549469],[27.498546,42.532457],[27.491466,42.507758],[27.483908,42.491146],[27.483491,42.481517],[27.481373,42.485575],[27.480154,42.482896],[27.479426,42.483167],[27.478684,42.476208],[27.476987,42.472992],[27.4787,42.483429],[27.47336,42.483463],[27.469506,42.476712],[27.466145,42.477859],[27.468039,42.486538],[27.463852,42.486571],[27.459779,42.481202],[27.457037,42.482807],[27.45874,42.486028],[27.452891,42.480129],[27.45338,42.465237],[27.465668,42.455634],[27.463121,42.450715],[27.464785,42.449834],[27.467154,42.445707],[27.472667,42.461859],[27.476948,42.458498],[27.479417,42.461422],[27.490327,42.447993],[27.494287,42.444884],[27.508909,42.438168],[27.509137,42.436205],[27.514171,42.435126],[27.526378,42.443671],[27.533545,42.453989],[27.532612,42.454632],[27.534178,42.454899],[27.534434,42.455268],[27.537411,42.456684],[27.536671,42.45721],[27.537656,42.4568],[27.544444,42.460028],[27.562022,42.448188],[27.571056,42.458482],[27.5796,42.457221],[27.580724,42.456428],[27.582986,42.461967],[27.585754,42.46357],[27.586547,42.458844],[27.599349,42.448989],[27.60963,42.451158],[27.619477,42.455878],[27.627315,42.458062],[27.629365,42.459643],[27.628845,42.458489],[27.629405,42.458645],[27.643321,42.455634],[27.642833,42.450507],[27.641775,42.44953],[27.639822,42.449774],[27.638266,42.449034],[27.651777,42.450655],[27.649147,42.44465],[27.652313,42.443532],[27.64697,42.438912],[27.65387,42.435808],[27.65196,42.432582],[27.656064,42.430883],[27.648389,42.430912],[27.646211,42.4261],[27.652192,42.418524],[27.667735,42.416083],[27.691661,42.42829],[27.69194,42.426889],[27.692048,42.426976],[27.701494,42.425802],[27.694925,42.420437],[27.703086,42.41979],[27.700034,42.415167],[27.701573,42.413561],[27.707856,42.412746],[27.719005,42.4147],[27.719005,42.408003],[27.729071,42.410284],[27.725962,42.406427],[27.729143,42.40476],[27.725702,42.403952],[27.724829,42.400408],[27.710854,42.401031],[27.706728,42.39527],[27.708099,42.389036],[27.709646,42.388129],[27.719005,42.386705],[27.714415,42.381919],[27.724108,42.378698],[27.709837,42.370516],[27.71303,42.361177],[27.725683,42.345453],[27.730337,42.344763],[27.728361,42.342978],[27.729544,42.337756],[27.731362,42.337177],[27.732638,42.337056],[27.732856,42.336701],[27.740408,42.334296],[27.752126,42.335395],[27.764496,42.338324],[27.780447,42.338935],[27.780447,42.335965],[27.784557,42.335968],[27.781214,42.329954],[27.783408,42.329001],[27.778532,42.325668],[27.78261,42.324761],[27.774502,42.321634],[27.776132,42.319765],[27.781867,42.318819],[27.780113,42.315718],[27.784942,42.312762],[27.785786,42.312704],[27.794324,42.306759],[27.786397,42.307831],[27.779419,42.302665],[27.772104,42.301254],[27.769666,42.299748],[27.773101,42.295008],[27.758575,42.288721],[27.755444,42.283797],[27.75795,42.271238],[27.766882,42.26582],[27.754409,42.264234],[27.75587,42.25849],[27.780447,42.243354],[27.777771,42.241718],[27.777962,42.238266],[27.784203,42.238308],[27.785496,42.235167],[27.778538,42.233555],[27.809744,42.218411],[27.815278,42.211982],[27.817935,42.207859],[27.817957,42.207851],[27.817969,42.207806],[27.819998,42.204657],[27.827503,42.198305],[27.829496,42.199005],[27.829137,42.196922],[27.831391,42.195014],[27.833266,42.193778],[27.84119,42.194407],[27.83755,42.190951],[27.842443,42.187724],[27.846442,42.186354],[27.845951,42.185657],[27.856212,42.181301],[27.854177,42.177924],[27.852482,42.173138],[27.859266,42.17364],[27.85939,42.169668],[27.852969,42.170196],[27.852018,42.166018],[27.858917,42.163228],[27.862251,42.165793],[27.866059,42.159861],[27.868881,42.158643],[27.874325,42.160965],[27.87272,42.156987],[27.873879,42.156487],[27.877692,42.155564],[27.877624,42.15487],[27.87908,42.154242],[27.886729,42.147366],[27.888032,42.145285],[27.895577,42.143544],[27.899713,42.138061],[27.897876,42.135107],[27.90333,42.134003],[27.903596,42.128871],[27.912374,42.125854],[27.913806,42.122708],[27.908201,42.11883],[27.913358,42.116027],[27.913396,42.115353],[27.935991,42.104637],[27.936938,42.105002],[27.943447,42.101719],[27.946252,42.104386],[27.948772,42.100548],[27.946578,42.099616],[27.957774,42.094306],[27.964366,42.084621],[27.972667,42.075385],[27.986583,42.072089],[27.983058,42.062761],[27.991525,42.063209],[27.990276,42.060585],[27.993257,42.059529],[27.987104,42.054064],[27.990356,42.053139],[27.992191,42.047818],[27.995908,42.044826],[28.003526,42.041922],[28.00336,42.040116],[28.007009,42.037909],[28.007579,42.032904],[28.007181,42.032539],[28.015149,42.027471],[28.010363,42.022348],[28.01075,42.02204],[28.017454,42.020322],[28.017152,42.011738],[28.017972,42.01032],[28.020702,42.008927],[28.019181,42.0071],[28.019296,42.005874],[28.03256,41.99465],[28.035754,41.983721],[28.0147,41.979708],[28.016775,41.972561],[27.98101,41.978524],[27.9694,41.981307],[27.96592,41.982141],[27.956468,41.981322],[27.956447,41.98132],[27.940202,41.979912],[27.939299,41.979834],[27.926306,41.978708],[27.923909,41.9785],[27.91925,41.978096],[27.917035,41.977904],[27.903392,41.981056],[27.900033,41.982283],[27.876934,41.99072],[27.860212,41.993921],[27.852232,41.995448],[27.851426,41.995475],[27.848388,41.995578],[27.843034,41.995758],[27.834401,41.994726],[27.825906,41.99371],[27.824017,41.993484],[27.819935,41.994699],[27.815955,41.995138],[27.811925,41.994699],[27.807997,41.993484],[27.804948,41.983433],[27.804897,41.969894],[27.802726,41.96005],[27.818281,41.952867],[27.815335,41.946795],[27.811675,41.945706],[27.80283,41.943074],[27.789807,41.942686],[27.776165,41.946123],[27.723971,41.967595],[27.687074,41.968602],[27.621371,41.955833],[27.619848,41.955537],[27.609301,41.953487],[27.606873,41.943513],[27.603359,41.93863],[27.598088,41.938604],[27.596544,41.939482],[27.590543,41.942893],[27.582378,41.934883],[27.572198,41.929845],[27.550752,41.924212],[27.552096,41.921835],[27.554886,41.920336],[27.557935,41.91907],[27.560674,41.917675],[27.55747,41.915505],[27.551269,41.913102],[27.550658,41.912531],[27.548892,41.91088],[27.562741,41.906435],[27.559624,41.905429],[27.546411,41.901164],[27.533182,41.908063],[27.509463,41.933178],[27.494321,41.942841],[27.420837,41.973718],[27.39686,41.989324],[27.374845,42.008703],[27.332471,42.057434],[27.305289,42.077588],[27.273353,42.091747],[27.238213,42.097922],[27.216405,42.095623],[27.203796,42.08813],[27.183994,42.068304],[27.181576,42.065883],[27.178992,42.061878],[27.178165,42.058364],[27.173824,42.057072],[27.149588,42.061826],[27.127212,42.062576],[27.11605,42.061826],[27.10065,42.071102],[27.0837,42.078415],[27.06551,42.082704],[27.047903,42.08292],[27.046545,42.082936],[27.022619,42.073893],[27.022568,42.073822],[27.000398,42.04281],[26.991045,42.037996],[26.981675,42.033173],[26.981071,42.032862],[26.96717,42.028495],[26.95823,42.018237],[26.950065,42.006171],[26.943885,42.000664],[26.938903,41.996223],[26.930221,41.994518],[26.921799,41.995539],[26.911463,41.996792],[26.901076,41.993484],[26.893041,41.987459],[26.890327,41.985423],[26.881129,41.985526],[26.871724,41.988136],[26.860768,41.987903],[26.85002,41.982865],[26.837899,41.97522],[26.827695,41.968783],[26.819427,41.965657],[26.80842,41.967879],[26.78992,41.979945],[26.780566,41.983433],[26.768578,41.980772],[26.746977,41.964494],[26.738249,41.959778],[26.736745,41.958965],[26.717573,41.957311],[26.623573,41.969041],[26.605693,41.967414],[26.589467,41.958758],[26.560632,41.935684],[26.558547,41.934517],[26.558484,41.934482],[26.553293,41.931576],[26.547092,41.926899],[26.542958,41.920362],[26.544715,41.916435],[26.556807,41.91075],[26.559805,41.90734],[26.558978,41.901733],[26.55474,41.892948],[26.553604,41.887703],[26.552895,41.881643],[26.552053,41.874448],[26.547816,41.856283],[26.539548,41.83799],[26.526112,41.824244],[26.521766,41.823247],[26.478363,41.813289],[26.375527,41.816622],[26.359316,41.806004],[26.334185,41.789543],[26.320026,41.765462],[26.316305,41.743758],[26.32323,41.723682],[26.331194,41.715311],[26.333359,41.713036],[26.302943,41.71089],[26.295334,41.710353],[26.294911,41.710323],[26.294239,41.71047],[26.284895,41.712507],[26.273931,41.714897],[26.261012,41.723062],[26.23445,41.745825],[26.226182,41.749675],[26.211816,41.750476],[26.189905,41.734689],[26.135128,41.733397],[26.121927,41.730683],[26.108359,41.727893],[26.089611,41.716464],[26.081488,41.711512],[26.074046,41.709135],[26.069978,41.708966],[26.067225,41.708851],[26.060507,41.7073],[26.053686,41.701513],[26.048105,41.689084],[26.047485,41.674615],[26.050275,41.660456],[26.055029,41.648751],[26.05949,41.643777],[26.066915,41.635496],[26.081178,41.630457],[26.093751,41.628608],[26.095234,41.62839],[26.106706,41.624282],[26.115284,41.616634],[26.121072,41.608211],[26.13027,41.582683],[26.130994,41.575138],[26.129443,41.559377],[26.1312,41.552659],[26.136781,41.549196],[26.152491,41.547026],[26.158072,41.542323],[26.163136,41.529146],[26.16448,41.517725],[26.16293,41.50646],[26.159312,41.493799],[26.147634,41.484756],[26.145877,41.478038],[26.156212,41.460416],[26.160449,41.455869],[26.174299,41.445998],[26.177399,41.439952],[26.176083,41.433915],[26.175642,41.431891],[26.173136,41.43074],[26.170578,41.429565],[26.164273,41.42786],[26.159002,41.421814],[26.14784,41.396906],[26.132441,41.371533],[26.120865,41.357787],[26.114664,41.355203],[26.107326,41.356598],[26.10552,41.356283],[26.102133,41.355691],[26.099738,41.355272],[26.099513,41.355233],[26.099165,41.355172],[26.021853,41.341664],[26.008934,41.336806],[25.982269,41.323267],[25.959635,41.314999],[25.948576,41.313965],[25.93514,41.315929],[25.921187,41.316032],[25.896308,41.306277],[25.896279,41.306265],[25.882017,41.304043],[25.86269,41.310089],[25.833337,41.334636],[25.8178,41.339096],[25.811013,41.341044],[25.800781,41.338046],[25.790429,41.33277],[25.790329,41.332719],[25.789479,41.332286],[25.788416,41.331744],[25.767461,41.321063],[25.763471,41.319029],[25.728744,41.317066],[25.717479,41.31412],[25.70518,41.307299],[25.698049,41.301925],[25.691227,41.298411],[25.679962,41.29717],[25.670453,41.299186],[25.649576,41.308487],[25.639758,41.311071],[25.585876,41.313879],[25.56522,41.314955],[25.551494,41.31567],[25.537955,41.312208],[25.530203,41.302751],[25.523692,41.291693],[25.514907,41.283476],[25.505089,41.280582],[25.497337,41.281202],[25.489482,41.283063],[25.479096,41.283786],[25.453682,41.280456],[25.453464,41.280427],[25.368453,41.259633],[25.366598,41.259179],[25.365334,41.25887],[25.339215,41.252481],[25.302581,41.24352],[25.300037,41.242898],[25.292851,41.24114],[25.285722,41.239396],[25.262261,41.238104],[25.23911,41.240895],[25.21968,41.249731],[25.177098,41.293863],[25.157875,41.30611],[25.153847,41.307535],[25.116534,41.320735],[25.112606,41.324145],[25.104855,41.334067],[25.101858,41.336651],[25.096793,41.336703],[25.0958,41.336544],[25.08036,41.334067],[24.916959,41.386364],[24.886367,41.400627],[24.872931,41.401867],[24.863009,41.400316],[24.842132,41.394735],[24.803271,41.392668],[24.800171,41.379336],[24.802858,41.361921],[24.796923,41.351876],[24.794279,41.3474],[24.774436,41.348072],[24.752628,41.362748],[24.718728,41.395717],[24.699195,41.408946],[24.680901,41.415509],[24.661264,41.41768],[24.660853,41.41768],[24.659741,41.41768],[24.638217,41.41768],[24.644314,41.427653],[24.622009,41.427389],[24.609484,41.42724],[24.595842,41.429772],[24.580442,41.440521],[24.579719,41.44419],[24.582199,41.455249],[24.581062,41.460209],[24.577238,41.463568],[24.56773,41.468116],[24.564113,41.471062],[24.558738,41.476849],[24.553571,41.480777],[24.549436,41.485428],[24.546543,41.493644],[24.543339,41.521343],[24.530936,41.547543],[24.510162,41.56165],[24.499895,41.558651],[24.498734,41.558312],[24.49357,41.556803],[24.481327,41.553227],[24.475989,41.552329],[24.459209,41.549506],[24.438849,41.527699],[24.436269,41.527269],[24.435754,41.527183],[24.423966,41.525218],[24.402882,41.527854],[24.387483,41.526665],[24.369663,41.522663],[24.358495,41.520155],[24.353893,41.519121],[24.345005,41.518397],[24.328005,41.519907],[24.318236,41.520774],[24.309554,41.519792],[24.303043,41.51695],[24.296119,41.515245],[24.286817,41.517622],[24.28506,41.523151],[24.287334,41.531626],[24.286403,41.54036],[24.26687,41.549765],[24.250747,41.563459],[24.240986,41.562535],[24.23328,41.561805],[24.214366,41.555759],[24.197698,41.547711],[24.19628,41.547026],[24.181604,41.537362],[24.17747,41.531006],[24.173379,41.516203],[24.173129,41.515297],[24.170235,41.511576],[24.162793,41.512041],[24.158453,41.51633],[24.154008,41.522118],[24.146257,41.526769],[24.116491,41.533383],[24.076597,41.536019],[24.047348,41.525735],[24.049829,41.493644],[24.052516,41.471475],[24.051999,41.463],[24.045901,41.455455],[24.037916,41.452498],[24.034739,41.451321],[24.022854,41.453078],[24.010446,41.459282],[24.000736,41.464137],[23.997119,41.457006],[23.992365,41.454628],[23.986887,41.453698],[23.981306,41.450856],[23.964666,41.43835],[23.949887,41.437575],[23.902861,41.463517],[23.894799,41.464344],[23.867721,41.445482],[23.851598,41.439591],[23.830927,41.435611],[23.80974,41.433803],[23.792067,41.434475],[23.777081,41.429049],[23.756391,41.403116],[23.754446,41.400678],[23.73822,41.397474],[23.705354,41.403159],[23.672177,41.402952],[23.66209,41.400174],[23.65285,41.397629],[23.649713,41.395241],[23.648896,41.394618],[23.627736,41.378509],[23.624847,41.377094],[23.612439,41.371016],[23.578953,41.371998],[23.513014,41.397733],[23.422835,41.39972],[23.414519,41.399903],[23.412681,41.399454],[23.397982,41.395859],[23.395502,41.395252],[23.368256,41.380286],[23.365116,41.378561],[23.347236,41.371223],[23.326049,41.369311],[23.31561,41.376855],[23.306205,41.388379],[23.287705,41.398198],[23.27845,41.397714],[23.269928,41.397268],[23.24657,41.389723],[23.224246,41.379026],[23.209777,41.368587],[23.206366,41.360939],[23.204816,41.342697],[23.199545,41.332982],[23.190656,41.326057],[23.179701,41.321355],[23.15717,41.316342],[23.115209,41.312673],[22.916978,41.335773],[22.940852,41.349829],[22.94447,41.368432],[22.939406,41.389413],[22.937339,41.410755],[22.940542,41.416905],[22.952118,41.427705],[22.954598,41.432408],[22.953358,41.438195],[22.94757,41.448376],[22.946227,41.453233],[22.943599,41.523201],[22.943023,41.538551],[22.94788,41.555139],[22.948707,41.560978],[22.946434,41.567748],[22.936925,41.57891],[22.933721,41.584595],[22.932068,41.597953],[22.932998,41.612345],[22.936098,41.626168],[22.940852,41.63764],[22.945813,41.641077],[22.961523,41.644488],[22.967001,41.647046],[22.970101,41.652032],[22.976613,41.666553],[22.985435,41.677198],[22.998627,41.693115],[23.009582,41.71637],[23.008859,41.739934],[22.991185,41.760992],[22.98054,41.764739],[22.956872,41.765669],[22.945917,41.769338],[22.939716,41.776702],[22.918322,41.814348],[22.907676,41.848584],[22.901372,41.860418],[22.896721,41.864448],[22.885042,41.869151],[22.882088,41.871618],[22.880804,41.872691],[22.878221,41.880261],[22.878634,41.895015],[22.877084,41.902043],[22.866335,41.924884],[22.858894,41.94788],[22.857137,41.971884],[22.85476,41.982632],[22.846905,41.993484],[22.846595,41.993639],[22.845768,42.006869],[22.845621,42.007408],[22.843701,42.014465],[22.838223,42.019478],[22.826958,42.025085],[22.821273,42.025369],[22.805977,42.02139],[22.798949,42.021235],[22.791094,42.025808],[22.787684,42.032578],[22.785874,42.037574],[22.785306,42.039141],[22.780862,42.043171],[22.77063,42.043998],[22.759233,42.043617],[22.725052,42.042474],[22.718437,42.044463],[22.713993,42.048623],[22.710272,42.05299],[22.705725,42.055935],[22.675856,42.060612],[22.627177,42.079127],[22.617771,42.082704],[22.531058,42.129109],[22.510181,42.144793],[22.506939,42.148927],[22.494678,42.164559],[22.481449,42.193317],[22.443622,42.214427],[22.345023,42.313439],[22.364144,42.320984]]],[[[27.553773,42.46723],[27.552387,42.467012],[27.552615,42.468219],[27.553289,42.468136],[27.553773,42.46723]]],[[[27.689073,42.436019],[27.686379,42.43714],[27.692159,42.440947],[27.695287,42.437746],[27.689073,42.436019]]],[[[27.699371,42.438717],[27.699347,42.438093],[27.697412,42.437987],[27.698037,42.43881],[27.699371,42.438717]]],[[[27.728946,42.404542],[27.729221,42.404413],[27.728615,42.404096],[27.728487,42.404349],[27.728946,42.404542]]],[[[27.729311,42.405125],[27.729738,42.405016],[27.729414,42.404709],[27.729179,42.404827],[27.729311,42.405125]]],[[[27.729529,42.40448],[27.729792,42.404416],[27.729607,42.404142],[27.729326,42.404266],[27.729529,42.40448]]],[[[27.735271,42.341364],[27.732845,42.341222],[27.733487,42.341923],[27.734788,42.341781],[27.735271,42.341364]]],[[[27.766298,42.290276],[27.76525,42.28957],[27.765328,42.289736],[27.765869,42.290136],[27.766298,42.290276]]],[[[27.949106,42.100416],[27.949163,42.10024],[27.948999,42.100173],[27.948903,42.100334],[27.949106,42.100416]]]]}}]}