{"type":"FeatureCollection","features":[{"type":"Feature","properties":{"slug":"sofiya","name_bg":"София","name_en":"Sofia","source":"OpenStreetMap contributors, ODbL 1.0"},"geometry":{"type":"MultiPolygon","coordinates":[[[[23.1705911,42.6598112],[23.1739097,42.66795],[23.1813591,42.6727657],[23.1870099,42.6883071],[23.1951661,42.6956029],[23.1968168,42.7033285],[23.2030954,42.7050928],[23.206603,42.7102705],[23.2032701,42.7142138],[23.2049498,42.7156475],[23.1964568,42.7162398],[23.2017829,42.7187438],[23.196801,42.7283],[23.2121248,42.7451882],[23.2302272,42.7406103],[23.2639729,42.7625641],[23.267478,42.7577137],[23.2716416,42.760632],[23.2748375,42.7565453],[23.2822359,42.7586188],[23.279094,42.7676253],[23.2829968,42.7745508],[23.2885415,42.7764207],[23.2897977,42.7826731],[23.3130005,42.779554],[23.3170816,42.7802293],[23.3187553,42.7867451],[23.323151,42.786786],[23.3213692,42.7838716],[23.3324676,42.7838716],[23.3471161,42.7780156],[23.3383946,42.7606764],[23.37596,42.7571616],[23.3809598,42.7606901],[23.3837169,42.752256],[23.3989765,42.7406772],[23.3969967,42.7375393],[23.4059104,42.7348496],[23.4076448,42.7307393],[23.4161664,42.7295702],[23.4159301,42.7253098],[23.4203819,42.7217917],[23.4364168,42.7193336],[23.4378066,42.7157938],[23.4416984,42.7183048],[23.4393181,42.7207917],[23.4424624,42.7306074],[23.4458627,42.7305153],[23.453828,42.7434775],[23.4658528,42.7495487],[23.454864,42.7603013],[23.4619012,42.7740071],[23.4597431,42.7801263],[23.4697486,42.7918693],[23.4721518,42.8151237],[23.4802664,42.8234145],[23.4803858,42.8329154],[23.4971404,42.8517767],[23.496352,42.859363],[23.506091,42.86399],[23.513676,42.862683],[23.524492,42.856019],[23.527254,42.849086],[23.533888,42.847917],[23.530977,42.843222],[23.534277,42.843083],[23.533133,42.839572],[23.539065,42.832239],[23.557011,42.82757],[23.566077,42.829689],[23.577254,42.84695],[23.59405,42.851661],[23.604002,42.860262],[23.6215817,42.856396],[23.6070969,42.8417458],[23.5886057,42.8126982],[23.581279,42.8162194],[23.5746616,42.8102515],[23.5734783,42.8014136],[23.5657216,42.7934034],[23.5629854,42.7834961],[23.5442652,42.7673873],[23.5375549,42.759922],[23.5396402,42.757288],[23.5248959,42.7446856],[23.532089,42.7402364],[23.5297453,42.735108],[23.5332297,42.7330546],[23.5264132,42.7310194],[23.5270071,42.7275872],[23.5222137,42.729434],[23.5162619,42.7228887],[23.4978189,42.7302288],[23.4863041,42.7183809],[23.4722024,42.7166014],[23.4681185,42.7082541],[23.4644568,42.7083636],[23.4564205,42.7005305],[23.452252,42.6880642],[23.4409304,42.6865555],[23.4420965,42.6901382],[23.4369003,42.6909254],[23.438038,42.68719],[23.4232423,42.6889584],[23.4160672,42.682394],[23.4033706,42.6855789],[23.411191,42.6771364],[23.4059068,42.6729654],[23.410114,42.6701396],[23.4049478,42.6623403],[23.4305592,42.6556127],[23.4305023,42.6513381],[23.4413141,42.6487122],[23.4360924,42.6434678],[23.4320475,42.6465333],[23.4237017,42.63654],[23.4269251,42.634055],[23.4217937,42.6342089],[23.4180434,42.6208494],[23.4078742,42.6146797],[23.38324,42.6183032],[23.3840278,42.6214725],[23.3790452,42.6201398],[23.3477975,42.5995958],[23.3177147,42.590745],[23.3116679,42.5946235],[23.3114236,42.5888933],[23.2990282,42.5889351],[23.2892767,42.5845549],[23.2878729,42.5751823],[23.2907408,42.5670159],[23.2857572,42.5617786],[23.258543,42.563684],[23.249464,42.57124],[23.238119,42.570669],[23.224221,42.583009],[23.2116864,42.5856756],[23.2226428,42.5923782],[23.2215676,42.5956184],[23.2281333,42.5951931],[23.2347208,42.603832],[23.2326476,42.6116482],[23.2393529,42.6188282],[23.21177,42.6394596],[23.1947292,42.6466191],[23.1730337,42.6491995],[23.172619,42.653284],[23.168006,42.656004],[23.1705911,42.6598112]]],[[[23.4312177,42.5728532],[23.4354931,42.5765377],[23.4540909,42.5808674],[23.464184,42.5628692],[23.4587344,42.5579851],[23.4402195,42.5657051],[23.4312177,42.5728532]]]]}},{"type":"Feature","properties":{"slug":"ruse","name_bg":"Русе","name_en":"Ruse","source":"OpenStreetMap contributors, ODbL 1.0"},"geometry":{"type":"MultiPolygon","coordinates":[[[[25.8663976,43.7703656],[25.8780721,43.7762299],[25.887878,43.79442],[25.937336,43.84622],[25.9528952,43.8591475],[25.984835,43.8778212],[26.0462958,43.9010193],[26.0488688,43.8962925],[26.0379907,43.8901094],[26.0450321,43.8807918],[26.0616412,43.887246],[26.0653253,43.8820385],[26.0664476,43.8788916],[26.055013,43.8726873],[26.0571712,43.8676277],[26.066073,43.8674743],[26.0622648,43.8663419],[26.0599404,43.8518243],[26.03915,43.849608],[26.0439916,43.8349308],[26.0629761,43.8305542],[26.0609894,43.8150033],[26.0543293,43.8012256],[26.0356214,43.7993233],[26.0329681,43.808886],[26.0289625,43.806323],[26.0280513,43.7964212],[26.0444059,43.7870617],[26.0324223,43.7810051],[26.0293024,43.777433],[26.0376878,43.7756563],[26.029876,43.7709373],[26.0069401,43.7869187],[25.9994817,43.7796724],[25.9920298,43.7786849],[25.9865266,43.7891134],[25.9706037,43.782086],[25.9670522,43.7840154],[25.970685,43.7868672],[25.955506,43.7884307],[25.9527329,43.7854982],[25.944554,43.789177],[25.9359352,43.7861261],[25.9353189,43.7793988],[25.9256016,43.7744089],[25.9125986,43.7729626],[25.9172243,43.7562536],[25.923853,43.7502858],[25.9260693,43.7419965],[25.9106843,43.7443183],[25.9089261,43.7519217],[25.9064596,43.7504924],[25.9006406,43.757084],[25.9034157,43.758253],[25.8716895,43.7602036],[25.8619812,43.7697482],[25.8663976,43.7703656]]],[[[26.0447528,43.7669919],[26.0518405,43.7731142],[26.0600617,43.7647655],[26.0736977,43.7695011],[26.0824089,43.7633774],[26.073836,43.7585197],[26.0681053,43.7632285],[26.0507844,43.7564023],[26.0386482,43.7640325],[26.0447528,43.7669919]]]]}},{"type":"Feature","properties":{"slug":"dobrich","name_bg":"Добрич","name_en":"Dobrich","source":"OpenStreetMap contributors, ODbL 1.0"},"geometry":{"type":"MultiPolygon","coordinates":[[[[27.7134261,43.588534],[27.728389,43.5888278],[27.7282069,43.5937744],[27.738821,43.5946054],[27.7528017,43.6177417],[27.7714439,43.6296131],[27.7764494,43.6275327],[27.7733039,43.6227684],[27.7767735,43.6179235],[27.7730555,43.6130402],[27.7820463,43.6058935],[27.7904304,43.6110054],[27.7929295,43.6251431],[27.8047811,43.6263463],[27.8401872,43.6251013],[27.8399034,43.6202216],[27.8502644,43.6201051],[27.846844,43.6231672],[27.8651344,43.6224743],[27.8642089,43.6110947],[27.8677592,43.6135227],[27.8749757,43.6087808],[27.8824518,43.6135576],[27.8916112,43.6076544],[27.8832276,43.5990344],[27.8748422,43.5977338],[27.8843846,43.5824724],[27.8729074,43.5715505],[27.8779305,43.5681924],[27.8603075,43.544696],[27.8296793,43.5428647],[27.8239909,43.5263597],[27.8249295,43.5187804],[27.8030967,43.5171878],[27.8031695,43.5249676],[27.799994,43.5273393],[27.8015529,43.5331061],[27.7908312,43.5332531],[27.7903866,43.5380818],[27.7524533,43.5387163],[27.7488397,43.5466226],[27.7532578,43.5489339],[27.7371732,43.5525029],[27.735983,43.5586887],[27.7159147,43.5582354],[27.7134261,43.588534]]]]}},{"type":"Feature","properties":{"slug":"razgrad","name_bg":"Разград","name_en":"Razgrad","source":"OpenStreetMap contributors, ODbL 1.0"},"geometry":{"type":"MultiPolygon","coordinates":[[[[26.4499083,43.5003847],[26.4578503,43.513658],[26.4662252,43.5151348],[26.4690185,43.5287516],[26.4884144,43.5300438],[26.4893245,43.5341783],[26.5003685,43.5382723],[26.4936757,43.5411012],[26.512775,43.5439476],[26.5066705,43.5662695],[26.49636,43.5629558],[26.4823948,43.5642715],[26.483661,43.5669172],[26.4915192,43.5659782],[26.4880567,43.5708745],[26.5020623,43.5689851],[26.4939792,43.5762457],[26.4888918,43.5757675],[26.4855848,43.5889372],[26.4968818,43.5896907],[26.5057986,43.5834827],[26.5043465,43.5873256],[26.5267658,43.578513],[26.5382133,43.582479],[26.5473178,43.5785389],[26.5516416,43.5837562],[26.5454742,43.5882692],[26.554185,43.5916651],[26.5461124,43.5942889],[26.5479071,43.6011829],[26.5619824,43.6078508],[26.5640149,43.5960869],[26.5547496,43.5816841],[26.558984,43.5742246],[26.5652419,43.5737847],[26.5672284,43.5777916],[26.5583567,43.5837754],[26.5663631,43.5900502],[26.5757145,43.5842598],[26.5855579,43.5914249],[26.5902524,43.5895653],[26.5902612,43.5865324],[26.5867812,43.5890654],[26.5832704,43.5866644],[26.5801279,43.5784522],[26.5841948,43.5727453],[26.5819062,43.5610783],[26.5874063,43.5609109],[26.5769545,43.5584588],[26.5736846,43.5420578],[26.5632853,43.5309329],[26.5805552,43.5273155],[26.5683807,43.5195331],[26.5798307,43.5136014],[26.5697896,43.5147095],[26.5623457,43.5048125],[26.5304913,43.4864237],[26.5295388,43.4761164],[26.5228106,43.4687739],[26.5292238,43.4497844],[26.5235461,43.4549683],[26.5127277,43.454929],[26.5063238,43.4684935],[26.5006201,43.4631553],[26.497106,43.4668196],[26.4851272,43.462901],[26.4890718,43.4453163],[26.4693,43.4544358],[26.4643194,43.4586882],[26.4651542,43.4675011],[26.4605651,43.4751695],[26.4649575,43.4786968],[26.4624838,43.4863429],[26.4764766,43.4997726],[26.4499083,43.5003847]]]]}},{"type":"Feature","properties":{"slug":"targovishte","name_bg":"Търговище","name_en":"Targovishte","source":"OpenStreetMap contributors, ODbL 1.0"},"geometry":{"type":"MultiPolygon","coordinates":[[[[26.4857585,43.2485229],[26.4817331,43.2541119],[26.5024578,43.2550994],[26.503482,43.270114],[26.507631,43.2740465],[26.5034234,43.2791842],[26.5233322,43.2870833],[26.5248767,43.2924252],[26.5388053,43.2882659],[26.5438798,43.2901366],[26.5473042,43.2874693],[26.5441021,43.2854641],[26.5458797,43.2821214],[26.5678067,43.2818684],[26.5775985,43.2785334],[26.587101,43.2818681],[26.5784782,43.2850541],[26.584843,43.298359],[26.5886543,43.2974393],[26.5926866,43.3053623],[26.6222255,43.2982752],[26.6209326,43.2886111],[26.6247803,43.2885348],[26.6221983,43.2798783],[26.6164053,43.276157],[26.6104758,43.2736969],[26.6101324,43.273524],[26.6099747,43.2734217],[26.6088849,43.2724863],[26.6110882,43.273945],[26.6145416,43.2694122],[26.6046847,43.2630487],[26.6080332,43.2593213],[26.6056306,43.2551618],[26.6159265,43.2552714],[26.6226962,43.252827],[26.6225041,43.2497673],[26.6497037,43.2477801],[26.6428395,43.2324044],[26.6197375,43.2371725],[26.5857438,43.2069529],[26.5821656,43.2137823],[26.5770931,43.2136589],[26.5757324,43.2099839],[26.5734502,43.2116172],[26.5750473,43.2150372],[26.5694767,43.2155372],[26.5558857,43.2127129],[26.5490996,43.2046311],[26.5377446,43.2079793],[26.5394748,43.1992481],[26.5531273,43.1938005],[26.5406962,43.1878449],[26.5116135,43.1845676],[26.4980475,43.1855954],[26.4951504,43.1887189],[26.5002149,43.1957127],[26.5059962,43.1971772],[26.5024699,43.2006381],[26.5076162,43.2059397],[26.4982941,43.2075817],[26.5092794,43.2090714],[26.5190431,43.2149355],[26.521165,43.2292191],[26.5240225,43.2310182],[26.5193218,43.23525],[26.5121118,43.2334628],[26.5098819,43.2421346],[26.4985438,43.2436988],[26.4981161,43.2484338],[26.4857585,43.2485229]]]]}},{"type":"Feature","properties":{"slug":"silistra","name_bg":"Силистра","name_en":"Silistra","source":"OpenStreetMap contributors, ODbL 1.0"},"geometry":{"type":"MultiPolygon","coordinates":[[[[27.1999145,44.1168266],[27.2350074,44.115683],[27.2734462,44.1276044],[27.278899,44.1234929],[27.2767686,44.1151585],[27.2843107,44.1096808],[27.2766323,44.1056439],[27.2773388,44.09882],[27.2901799,44.0841565],[27.2909253,44.0752419],[27.3333455,44.0642039],[27.332265,44.0614418],[27.3297994,44.0576645],[27.3150017,44.0586417],[27.3082389,44.0538238],[27.2987897,44.0588965],[27.2931474,44.067463],[27.2883936,44.0638666],[27.266083,44.0639559],[27.2529639,44.0827112],[27.2623188,44.0815245],[27.2618161,44.0924253],[27.2500974,44.0893309],[27.2434906,44.0986474],[27.2465273,44.1002195],[27.2429627,44.0995095],[27.2406478,44.1064895],[27.2226442,44.1006879],[27.2221307,44.1037027],[27.2081859,44.1025828],[27.2050656,44.0959401],[27.1977001,44.1051538],[27.1999145,44.1168266]]]]}},{"type":"Feature","properties":{"slug":"shumen","name_bg":"Шумен","name_en":"Shumen","source":"OpenStreetMap contributors, ODbL 1.0"},"geometry":{"type":"MultiPolygon","coordinates":[[[[26.8377804,43.2599543],[26.8396914,43.2636091],[26.8487635,43.265581],[26.8575724,43.282592],[26.8643615,43.2852153],[26.8893371,43.280157],[26.8945396,43.290489],[26.892207,43.2929004],[26.9069481,43.316215],[26.9010027,43.3217472],[26.9276003,43.3188156],[26.9368759,43.3283841],[26.9406112,43.3276396],[26.9373347,43.3298808],[26.9419986,43.3397835],[26.9535338,43.3383742],[26.9523487,43.3306998],[26.9689704,43.3293035],[26.9682727,43.3248251],[26.9726135,43.3242445],[26.9702653,43.3219937],[26.986729,43.3154956],[26.9841878,43.3279731],[26.9897938,43.3287567],[26.9869751,43.3392124],[26.9904007,43.3391964],[26.9971057,43.3201037],[27.0018813,43.3226775],[27.0175759,43.3169632],[27.014775,43.3106138],[27.0225734,43.3087427],[27.034884,43.3074604],[27.0435095,43.3113669],[27.0543393,43.3086355],[27.0562425,43.3031786],[27.0632611,43.3045845],[27.0656048,43.2959348],[27.0529865,43.2927433],[27.0514586,43.2885424],[27.0366416,43.2832078],[27.0382266,43.2784835],[27.0175256,43.2841508],[27.0062548,43.2840647],[27.0069146,43.2807808],[27.0124361,43.2812478],[27.0066037,43.2692979],[26.9989813,43.2685215],[27.0072884,43.2648004],[27.0083692,43.2614277],[26.9962047,43.2527193],[26.9925853,43.2555126],[26.9828285,43.2545109],[26.9855029,43.2484453],[26.9759138,43.2476185],[26.9772705,43.2418998],[26.9712212,43.2413426],[26.9766267,43.2400011],[26.971955,43.2243963],[26.9772994,43.2171963],[26.9411853,43.2154001],[26.9301933,43.2000061],[26.9318769,43.1979526],[26.9261063,43.1825913],[26.9178129,43.1742976],[26.9180144,43.1647853],[26.913101,43.1685505],[26.912632,43.1747046],[26.903732,43.180327],[26.902609,43.186579],[26.898446,43.186896],[26.902184,43.199834],[26.912909,43.200113],[26.914976,43.205125],[26.909719,43.206067],[26.915623,43.213665],[26.906174,43.213319],[26.8914622,43.2215305],[26.893022,43.226725],[26.886062,43.22908],[26.883446,43.235936],[26.877989,43.239419],[26.878127,43.243715],[26.865133,43.245536],[26.860412,43.258601],[26.8377804,43.2599543]]]]}},{"type":"Feature","properties":{"slug":"varna","name_bg":"Варна","name_en":"Varna","source":"OpenStreetMap contributors, ODbL 1.0"},"geometry":{"type":"MultiPolygon","coordinates":[[[[27.832971,43.275947],[27.8699421,43.2663077],[27.8706119,43.2623647],[27.8676177,43.2603818],[27.8711308,43.255226],[27.8745598,43.2524477],[27.8851483,43.2570414],[27.8970893,43.2424286],[27.9046092,43.2427819],[27.9075184,43.239542],[27.9185641,43.2426372],[27.9269809,43.2403832],[27.9292037,43.2484034],[27.932674,43.249509],[27.939137,43.244961],[27.952451,43.246935],[27.97291,43.26448],[27.9918,43.257366],[28.002633,43.264159],[28.016894,43.292929],[28.019808,43.290855],[28.028091,43.297508],[28.03466,43.296969],[28.045846,43.304173],[28.047589,43.301216],[28.052415,43.309813],[28.0562129,43.309509],[28.0536975,43.299986],[28.0524556,43.3028749],[28.0491193,43.2982456],[28.0440938,43.2749576],[28.0320132,43.2581511],[28.0302083,43.2474858],[28.0184846,43.2422658],[28.0136228,43.228413],[28.0154471,43.2259836],[28.0137852,43.2243644],[28.0139872,43.2264483],[28.0090794,43.2244879],[28.0107992,43.2222257],[28.003536,43.218256],[28.0051546,43.2205598],[28.0017346,43.2211845],[27.9968415,43.2179015],[27.9981476,43.2161049],[27.9969186,43.2155085],[27.9869566,43.2164115],[27.9891812,43.217533],[27.9859805,43.2194958],[27.9799437,43.216927],[27.9734437,43.2191746],[27.9582107,43.2112837],[27.9428285,43.2108373],[27.9403474,43.2069693],[27.9379829,43.2088034],[27.9330925,43.2039719],[27.9284415,43.2057436],[27.9246173,43.2023739],[27.9213723,43.1960766],[27.9219647,43.1734229],[27.9462995,43.1710975],[27.9399607,43.1355049],[27.930462,43.1270928],[27.9237735,43.1063233],[27.899795,43.100252],[27.876884,43.109025],[27.874526,43.111015],[27.877329,43.112775],[27.863147,43.126106],[27.861634,43.132179],[27.849186,43.135876],[27.8489998,43.139894],[27.8554937,43.1410474],[27.8481516,43.1505023],[27.8532297,43.161825],[27.8500102,43.1816949],[27.8389194,43.1922595],[27.8566488,43.199038],[27.8460541,43.2102286],[27.8407892,43.2282815],[27.834964,43.228703],[27.833766,43.256176],[27.829908,43.258463],[27.836826,43.271325],[27.832971,43.275947]]]]}},{"type":"Feature","properties":{"slug":"gabrovo","name_bg":"Габрово","name_en":"Габрово","source":"OpenStreetMap contributors, ODbL 1.0"},"geometry":{"type":"MultiPolygon","coordinates":[[[[25.1651353,42.8581905],[25.1727128,42.856389],[25.175622,42.8610277],[25.189988,42.8618716],[25.188176,42.8651235],[25.1968809,42.8662051],[25.1998934,42.8712108],[25.2471158,42.8724859],[25.2682327,42.8789294],[25.2715157,42.8825773],[25.2707938,42.8884658],[25.2750125,42.8891504],[25.2730548,42.8947595],[25.2912753,42.893182],[25.2918393,42.9041373],[25.2994097,42.9107057],[25.2940238,42.9149331],[25.2946676,42.9199302],[25.3212965,42.913393],[25.329346,42.9174842],[25.34917,42.9110986],[25.3555668,42.8944176],[25.3531571,42.8769529],[25.3570425,42.8738728],[25.3553053,42.871833],[25.3610692,42.8577786],[25.3730261,42.850511],[25.3572295,42.8464947],[25.3589032,42.8304772],[25.353925,42.8243082],[25.3643091,42.8126336],[25.404415,42.812434],[25.404843,42.801662],[25.408064,42.79773],[25.433016,42.789548],[25.432665,42.783364],[25.438775,42.779809],[25.43241,42.776019],[25.434713,42.749371],[25.420403,42.733866],[25.403362,42.743442],[25.390087,42.738782],[25.371915,42.741491],[25.3745593,42.7464048],[25.3724349,42.7511004],[25.3783787,42.7591515],[25.3679074,42.7934396],[25.3584996,42.8034194],[25.3500079,42.8020245],[25.3413301,42.8064904],[25.3136688,42.8022544],[25.3116524,42.801455],[25.3136363,42.7966226],[25.3080666,42.7962467],[25.3109011,42.781641],[25.3069903,42.7695402],[25.3160931,42.7666407],[25.3196495,42.7609748],[25.3183687,42.7570986],[25.291153,42.754523],[25.282496,42.750148],[25.280859,42.758061],[25.275139,42.763942],[25.267367,42.764841],[25.2498282,42.7426928],[25.244069,42.743986],[25.240167,42.749865],[25.225983,42.749202],[25.224477,42.762475],[25.221385,42.768368],[25.211649,42.774735],[25.210369,42.780872],[25.178405,42.789522],[25.17811,42.796616],[25.167683,42.810193],[25.173846,42.827683],[25.169833,42.841443],[25.160806,42.849033],[25.1651353,42.8581905]]]]}},{"type":"Feature","properties":{"slug":"veliko-tarnovo","name_bg":"Велико Търново","name_en":"Велико Търново","source":"OpenStreetMap contributors, ODbL 1.0"},"geometry":{"type":"MultiPolygon","coordinates":[[[[25.5672335,43.0549369],[25.5881447,43.0666682],[25.5722269,43.0718287],[25.5764037,43.0784642],[25.5852517,43.0813698],[25.5874743,43.090003],[25.5979928,43.089455],[25.6187322,43.0967386],[25.6164064,43.1002778],[25.6236916,43.1046559],[25.622328,43.1084745],[25.6275822,43.1161852],[25.624321,43.120582],[25.637666,43.118962],[25.6392706,43.104951],[25.6438626,43.0966629],[25.6574453,43.0985901],[25.6579817,43.0955818],[25.6759633,43.0840329],[25.6623896,43.0809987],[25.669951,43.075727],[25.6653019,43.0738135],[25.668961,43.065623],[25.6353622,43.0661146],[25.6369083,43.061463],[25.6265933,43.0561932],[25.5985908,43.0552111],[25.5897638,43.0579779],[25.5672335,43.0549369]]]]}},{"type":"Feature","properties":{"slug":"kyustendil","name_bg":"Кюстендил","name_en":"Kyustendil","source":"OpenStreetMap contributors, ODbL 1.0"},"geometry":{"type":"MultiPolygon","coordinates":[[[[22.6681814,42.2868168],[22.6731047,42.2871908],[22.6729984,42.2944452],[22.6832888,42.3002292],[22.6716369,42.3135679],[22.6907775,42.3060991],[22.7040086,42.3067924],[22.707016,42.3023989],[22.7202677,42.307171],[22.7337449,42.2997131],[22.72999,42.2938728],[22.7321565,42.2933097],[22.7209874,42.2863549],[22.7172166,42.2792648],[22.7102475,42.2783134],[22.7062415,42.2699033],[22.6930126,42.2656243],[22.6852765,42.2672761],[22.6735283,42.2537127],[22.6670929,42.2601357],[22.6681496,42.2655868],[22.6631194,42.2697794],[22.6630952,42.2740447],[22.6535518,42.2704739],[22.6469627,42.2718889],[22.665302,42.2749625],[22.6634424,42.2781738],[22.6681814,42.2868168]]]]}},{"type":"Feature","properties":{"slug":"burgas","name_bg":"Бургас","name_en":"Burgas","source":"OpenStreetMap contributors, ODbL 1.0"},"geometry":{"type":"MultiPolygon","coordinates":[[[[27.318265,42.493619],[27.3219663,42.4937263],[27.3217181,42.5014095],[27.3293508,42.5061256],[27.319857,42.519753],[27.344637,42.527582],[27.337263,42.535413],[27.35998,42.550177],[27.360387,42.558763],[27.379291,42.572891],[27.3684035,42.5807566],[27.3742961,42.5853228],[27.3516487,42.6019559],[27.3662932,42.6131023],[27.3613755,42.6158656],[27.3582122,42.6134534],[27.359295,42.6172001],[27.3505961,42.6226211],[27.3562191,42.6274253],[27.3554023,42.6341336],[27.3596665,42.6389921],[27.3753487,42.638401],[27.4009225,42.650168],[27.4155024,42.6492575],[27.4258543,42.6339977],[27.4238247,42.6274302],[27.4176439,42.6246797],[27.4221429,42.6246096],[27.428562,42.6104999],[27.4312122,42.6139809],[27.4383623,42.6129109],[27.4405701,42.6180612],[27.4564826,42.6142411],[27.4540255,42.6215287],[27.4611611,42.6278872],[27.4598298,42.6333522],[27.4742851,42.6392876],[27.4806447,42.6484481],[27.4835849,42.6487542],[27.4850988,42.64434],[27.5003623,42.6462405],[27.5072453,42.6396901],[27.505576,42.628873],[27.509748,42.614113],[27.515996,42.61523],[27.522422,42.604414],[27.519294,42.599072],[27.522268,42.594961],[27.51449,42.58925],[27.505198,42.589533],[27.515543,42.579645],[27.524199,42.585581],[27.537497,42.575025],[27.536806,42.569036],[27.540338,42.568754],[27.539167,42.562437],[27.541366,42.5619296],[27.5399972,42.5589201],[27.5192654,42.5559243],[27.5181293,42.5549733],[27.5188849,42.5539309],[27.5178374,42.5520368],[27.5175675,42.5551617],[27.5169964,42.5526193],[27.5133298,42.5534166],[27.4928027,42.5322551],[27.4846549,42.5084058],[27.4834907,42.4815168],[27.4796875,42.4888044],[27.4699427,42.487628],[27.4794657,42.4835399],[27.4786838,42.4762082],[27.4769873,42.4729922],[27.4787004,42.4834289],[27.4733596,42.4834629],[27.4695056,42.4767121],[27.4661453,42.4778591],[27.4680394,42.4865377],[27.4638525,42.4865707],[27.4597793,42.4812022],[27.4570373,42.4828072],[27.4595149,42.4874953],[27.45682,42.4897992],[27.4494335,42.4824747],[27.4519725,42.4816336],[27.4465838,42.4737514],[27.4471502,42.4659709],[27.456051,42.4598412],[27.4491201,42.4634544],[27.4425754,42.4618744],[27.4505493,42.4571926],[27.4537503,42.4590834],[27.4518411,42.4566833],[27.4647851,42.4498345],[27.4685664,42.4432474],[27.476598,42.4504091],[27.4718984,42.452517],[27.4794174,42.4614223],[27.4919989,42.4459351],[27.508909,42.438168],[27.5101458,42.4275308],[27.5217972,42.4301511],[27.5245846,42.4353605],[27.5317905,42.437005],[27.5283572,42.4390596],[27.531316,42.444996],[27.5395031,42.4498823],[27.5326124,42.4546317],[27.5388055,42.455691],[27.5366712,42.4572105],[27.570475,42.444231],[27.546678,42.427687],[27.551134,42.420469],[27.548441,42.415754],[27.538,42.415254],[27.535914,42.412214],[27.5255585,42.4163668],[27.5181075,42.4143519],[27.5147238,42.421382],[27.5056866,42.4212486],[27.5039362,42.4259059],[27.4894142,42.4223648],[27.4872652,42.4293704],[27.4560891,42.4394042],[27.4509801,42.4354057],[27.43839,42.4350026],[27.4283049,42.4391517],[27.4198747,42.4303107],[27.4026,42.4242674],[27.386708,42.423064],[27.371836,42.441126],[27.368433,42.455965],[27.359316,42.458402],[27.34736,42.467676],[27.348601,42.470899],[27.330335,42.469088],[27.322115,42.473214],[27.324792,42.48903],[27.318853,42.487264],[27.318265,42.493619]]]]}},{"type":"Feature","properties":{"slug":"vidin","name_bg":"Видин","name_en":"Vidin","source":"OpenStreetMap contributors, ODbL 1.0"},"geometry":{"type":"MultiPolygon","coordinates":[[[[22.7876921,43.9707134],[22.7837691,43.9785875],[22.776628,43.9821666],[22.7796621,43.9885306],[22.7907235,43.989954],[22.796347,43.9873967],[22.7966496,43.9956712],[22.8234309,43.9937339],[22.8228301,43.9980777],[22.8092903,44.0035572],[22.8112558,44.0104112],[22.8251171,44.0100687],[22.8292396,44.0067253],[22.8305648,44.0129728],[22.8358666,44.009799],[22.8456116,44.0106594],[22.8368215,44.0183528],[22.8401925,44.0199946],[22.8529415,44.0130768],[22.8543856,44.0180334],[22.8507983,44.0240402],[22.8846508,44.0242186],[22.8869554,44.0332431],[22.8834385,44.0690851],[22.888089,44.069005],[22.890635,44.079491],[22.899801,44.090245],[22.908216,44.087209],[22.913523,44.098118],[22.919855,44.0962635],[22.9159389,44.0911985],[22.9176126,44.0859028],[22.9136043,44.0843369],[22.8869686,44.0195628],[22.8894063,44.0143209],[22.9032945,44.0162332],[22.911829,44.0230379],[22.918219,44.0214201],[22.9184436,44.0103464],[22.9221109,44.0117847],[22.9202632,44.008868],[22.9263894,44.0004116],[22.8905511,43.9894985],[22.8829561,43.9843054],[22.8620299,43.9339177],[22.8369787,43.9419809],[22.8336077,43.9486276],[22.8249175,43.9466859],[22.8326297,43.9533958],[22.8206404,43.9781199],[22.8083194,43.9775524],[22.7995171,43.9713566],[22.7876921,43.9707134]]]]}},{"type":"Feature","properties":{"slug":"montana","name_bg":"Монтана","name_en":"Montana","source":"OpenStreetMap contributors, ODbL 1.0"},"geometry":{"type":"MultiPolygon","coordinates":[[[[22.862827,43.513561],[22.864015,43.519988],[22.873936,43.524108],[22.883046,43.533166],[22.880292,43.534372],[22.884972,43.543266],[22.883319,43.548808],[22.88847,43.553709],[22.897366,43.555365],[22.905118,43.56365],[22.917865,43.56574],[22.917319,43.571803],[22.922463,43.575805],[22.942154,43.576689],[22.938039,43.574978],[22.964203,43.564238],[23.028907,43.589662],[23.034004,43.587626],[23.05833,43.591371],[23.062968,43.596936],[23.108911,43.574713],[23.12047,43.564047],[23.119721,43.556168],[23.157873,43.557909],[23.157119,43.567754],[23.159366,43.567144],[23.162505,43.577559],[23.190325,43.572022],[23.18842,43.567225],[23.203471,43.563597],[23.206936,43.560685],[23.205179,43.557655],[23.211774,43.553439],[23.232304,43.5455],[23.234103,43.558852],[23.265566,43.560575],[23.271033,43.567605],[23.282881,43.569028],[23.301577,43.564332],[23.329812,43.563515],[23.314894,43.539821],[23.313945,43.521391],[23.296555,43.517704],[23.293695,43.512549],[23.295881,43.509668],[23.282564,43.510051],[23.272904,43.502589],[23.248831,43.510693],[23.239789,43.503075],[23.234899,43.492471],[23.272215,43.473687],[23.296349,43.466755],[23.324469,43.44903],[23.324056,43.444292],[23.3273,43.441804],[23.325644,43.437078],[23.327836,43.439348],[23.335814,43.437523],[23.351565,43.424312],[23.369575,43.436922],[23.379922,43.434469],[23.393565,43.425936],[23.402223,43.428708],[23.415021,43.418509],[23.417152,43.412029],[23.413131,43.406729],[23.417402,43.38971],[23.413073,43.390825],[23.398473,43.384383],[23.395426,43.37136],[23.385908,43.372615],[23.3765135,43.3490779],[23.380381,43.340493],[23.359064,43.331446],[23.353188,43.323514],[23.355056,43.321104],[23.351132,43.312873],[23.339106,43.310538],[23.338385,43.307238],[23.334113,43.306289],[23.335122,43.303894],[23.330941,43.303237],[23.333043,43.29913],[23.328456,43.299118],[23.326847,43.294705],[23.31446,43.304252],[23.303765,43.306099],[23.3001737,43.31726],[23.2935141,43.3232291],[23.2962238,43.3365663],[23.2782077,43.3365717],[23.2618192,43.3478291],[23.2506895,43.3425424],[23.2425761,43.3444633],[23.2278372,43.3332765],[23.213147,43.337567],[23.210842,43.341352],[23.202999,43.343342],[23.202963,43.347996],[23.184535,43.353378],[23.185941,43.363008],[23.176763,43.368825],[23.17225,43.365229],[23.159039,43.369647],[23.145712,43.364079],[23.138277,43.368734],[23.131577,43.366803],[23.128861,43.370466],[23.132572,43.379494],[23.142538,43.384121],[23.103338,43.375224],[23.084686,43.36738],[23.08233,43.369851],[23.085879,43.372962],[23.07721,43.376438],[23.092729,43.390114],[23.095841,43.396971],[23.086931,43.401688],[23.08661,43.410541],[23.095174,43.429006],[23.080373,43.436241],[23.073975,43.459002],[23.077772,43.46295],[23.065067,43.46128],[23.057498,43.468286],[23.058619,43.465491],[23.048735,43.46802],[23.045781,43.470503],[23.046108,43.477929],[23.039603,43.482686],[23.042992,43.489377],[23.041111,43.494299],[23.033231,43.496805],[23.027509,43.503933],[23.009969,43.494023],[22.996775,43.473864],[23.000943,43.468044],[22.983625,43.467264],[22.949617,43.476096],[22.926012,43.475824],[22.911546,43.480519],[22.913594,43.488834],[22.908574,43.492239],[22.911082,43.503478],[22.901821,43.515709],[22.896914,43.510647],[22.887889,43.511886],[22.878627,43.507994],[22.867827,43.51027],[22.865781,43.515196],[22.862827,43.513561]]]]}},{"type":"Feature","properties":{"slug":"vratsa","name_bg":"Враца","name_en":"Vratsa","source":"OpenStreetMap contributors, ODbL 1.0"},"geometry":{"type":"MultiPolygon","coordinates":[[[[23.390895,43.180281],[23.393137,43.186557],[23.398524,43.187499],[23.400863,43.196441],[23.411818,43.203007],[23.447035,43.205945],[23.454915,43.214734],[23.462138,43.21179],[23.460469,43.214237],[23.473099,43.224939],[23.450517,43.234837],[23.448461,43.236612],[23.45059,43.239474],[23.442054,43.242654],[23.43756,43.249088],[23.430666,43.249076],[23.412537,43.257594],[23.420605,43.262567],[23.421763,43.285127],[23.435548,43.29374],[23.44156,43.293637],[23.437715,43.296598],[23.44449,43.298792],[23.441566,43.309225],[23.437722,43.310045],[23.440154,43.318232],[23.453881,43.326248],[23.458934,43.326857],[23.466698,43.321789],[23.474517,43.32851],[23.471639,43.332818],[23.483284,43.342312],[23.492776,43.345536],[23.492418,43.35032],[23.506738,43.351755],[23.516837,43.360583],[23.525744,43.36115],[23.526379,43.365457],[23.534546,43.366412],[23.545854,43.359212],[23.561607,43.361479],[23.573787,43.364128],[23.581597,43.372332],[23.600337,43.376253],[23.595564,43.379746],[23.596508,43.391482],[23.584855,43.3965],[23.588135,43.39964],[23.583721,43.401679],[23.585459,43.408031],[23.581055,43.420081],[23.562537,43.435087],[23.570676,43.440148],[23.594563,43.468954],[23.608193,43.473693],[23.606799,43.481336],[23.619804,43.486789],[23.618169,43.490627],[23.63196,43.490823],[23.632094,43.488095],[23.635227,43.48815],[23.632704,43.479976],[23.638204,43.473746],[23.635301,43.468973],[23.647243,43.447082],[23.642774,43.440245],[23.673146,43.428518],[23.675157,43.421065],[23.670733,43.414016],[23.679803,43.406472],[23.687115,43.402605],[23.696695,43.404311],[23.70034,43.399978],[23.734186,43.387013],[23.733633,43.382819],[23.739344,43.379346],[23.740968,43.367181],[23.747948,43.360357],[23.753649,43.364766],[23.764323,43.366494],[23.767044,43.362146],[23.769857,43.362755],[23.769694,43.357195],[23.775361,43.356981],[23.777461,43.344182],[23.786706,43.34152],[23.788795,43.338129],[23.791759,43.338622],[23.791294,43.341482],[23.796054,43.341466],[23.800165,43.333177],[23.844355,43.300302],[23.867409,43.309952],[23.891137,43.306017],[23.882025,43.291192],[23.885471,43.286777],[23.88233,43.280026],[23.885845,43.278098],[23.877103,43.272446],[23.882532,43.266149],[23.875971,43.261068],[23.8631,43.263341],[23.840883,43.259439],[23.834734,43.266068],[23.827287,43.261717],[23.821436,43.262494],[23.817327,43.269161],[23.803881,43.272949],[23.802731,43.270949],[23.797714,43.275038],[23.789686,43.268124],[23.792808,43.263268],[23.791073,43.260309],[23.776985,43.256606],[23.775395,43.251997],[23.778464,43.242567],[23.768815,43.242517],[23.761995,43.235934],[23.742201,43.242577],[23.729394,43.241653],[23.726119,43.249886],[23.728758,43.259503],[23.726579,43.263589],[23.724584,43.254498],[23.709605,43.240911],[23.698061,43.243248],[23.690779,43.249651],[23.684036,43.243159],[23.681457,43.246087],[23.683941,43.249772],[23.680767,43.248315],[23.680565,43.240635],[23.671892,43.241518],[23.666117,43.246648],[23.664405,43.237126],[23.660607,43.237895],[23.654792,43.226466],[23.651084,43.226166],[23.651138,43.221809],[23.647607,43.220028],[23.649129,43.216222],[23.645441,43.207083],[23.640143,43.207743],[23.621785,43.198298],[23.626366,43.186203],[23.622385,43.186501],[23.623,43.182675],[23.611568,43.173505],[23.618476,43.167299],[23.617276,43.163],[23.623146,43.155972],[23.637327,43.147802],[23.629181,43.140901],[23.635916,43.134115],[23.633792,43.131415],[23.638822,43.123706],[23.636559,43.121645],[23.633495,43.123847],[23.617837,43.112079],[23.606253,43.116454],[23.601902,43.115813],[23.602775,43.111888],[23.599612,43.109877],[23.577479,43.113739],[23.575337,43.129734],[23.560048,43.128936],[23.547331,43.135013],[23.555094,43.144427],[23.547746,43.145165],[23.549726,43.150968],[23.534982,43.161514],[23.530269,43.15952],[23.530626,43.1534],[23.525721,43.15326],[23.52499,43.149562],[23.504658,43.149921],[23.501764,43.145378],[23.506111,43.142692],[23.507538,43.134177],[23.49884,43.137],[23.488255,43.134226],[23.47784,43.144661],[23.478163,43.151133],[23.474507,43.154126],[23.455776,43.153008],[23.442612,43.157719],[23.440522,43.150175],[23.424408,43.15253],[23.410425,43.163271],[23.410637,43.167495],[23.395233,43.167603],[23.389241,43.177603],[23.390895,43.180281]]]]}},{"type":"Feature","properties":{"slug":"lovech","name_bg":"Ловеч","name_en":"Lovech","source":"OpenStreetMap contributors, ODbL 1.0"},"geometry":{"type":"MultiPolygon","coordinates":[[[[24.523652,43.098618],[24.517297,43.10886],[24.520191,43.114826],[24.528031,43.118563],[24.520503,43.123104],[24.526539,43.129835],[24.537636,43.132135],[24.53291,43.133915],[24.541508,43.13868],[24.538516,43.141907],[24.541209,43.146372],[24.535142,43.14542],[24.541981,43.149594],[24.536501,43.151606],[24.547577,43.15611],[24.542053,43.158963],[24.546068,43.15897],[24.545724,43.162277],[24.549414,43.157855],[24.553608,43.160648],[24.562509,43.157008],[24.565397,43.16088],[24.560998,43.166118],[24.550999,43.164002],[24.551356,43.173606],[24.556632,43.177302],[24.556575,43.188615],[24.567377,43.19767],[24.575548,43.198565],[24.57313,43.199964],[24.577853,43.203887],[24.600231,43.210397],[24.601993,43.21455],[24.61924,43.217085],[24.620341,43.22044],[24.627506,43.223268],[24.638418,43.222828],[24.631248,43.225315],[24.62975,43.231444],[24.641209,43.236687],[24.638538,43.238448],[24.643392,43.240023],[24.64439,43.246965],[24.648542,43.245785],[24.656258,43.251534],[24.653172,43.279268],[24.668288,43.26399],[24.669388,43.251227],[24.682642,43.250583],[24.687734,43.258105],[24.683543,43.267068],[24.685915,43.274891],[24.696049,43.273615],[24.69397,43.275749],[24.715756,43.28228],[24.714912,43.28695],[24.729406,43.288485],[24.728184,43.294276],[24.740628,43.295598],[24.741975,43.304667],[24.754485,43.305195],[24.754802,43.313114],[24.805941,43.314306],[24.81161,43.317224],[24.833066,43.306926],[24.832555,43.303631],[24.886214,43.302422],[24.885614,43.297622],[24.904366,43.297574],[24.903993,43.287891],[24.913992,43.287211],[24.915508,43.290529],[24.934893,43.293778],[24.93127,43.305729],[24.945424,43.305643],[24.94535,43.29614],[25.006714,43.294916],[25.007097,43.286201],[25.013453,43.281827],[25.016026,43.268227],[25.01203,43.266393],[25.009312,43.253954],[25.012356,43.23602],[24.96889,43.236681],[24.963514,43.232753],[24.964511,43.229475],[24.968002,43.230231],[24.967413,43.222509],[24.970954,43.222316],[24.969905,43.216697],[24.963103,43.216762],[24.96853,43.211852],[24.963619,43.207548],[24.970999,43.209231],[24.968791,43.198009],[24.97352,43.193278],[24.972462,43.189938],[24.959919,43.19369],[24.955954,43.184477],[24.96436,43.182466],[24.961147,43.177204],[24.965141,43.1723],[24.961604,43.170126],[24.963063,43.16436],[24.9729,43.154662],[24.972376,43.136151],[24.963775,43.128004],[24.967579,43.122271],[24.95685,43.117867],[24.948361,43.119065],[24.944948,43.115095],[24.927858,43.114087],[24.927542,43.109734],[24.924236,43.11063],[24.918219,43.104666],[24.928196,43.101873],[24.922749,43.098823],[24.921539,43.090138],[24.916981,43.091385],[24.925473,43.08489],[24.92207,43.081247],[24.925918,43.076362],[24.922661,43.073195],[24.923477,43.068805],[24.918207,43.067167],[24.927731,43.057278],[24.941666,43.052559],[24.936625,43.050014],[24.935803,43.043519],[24.930053,43.041383],[24.933389,43.038189],[24.951592,43.035561],[24.951545,43.03119],[24.944817,43.030052],[24.945742,43.028063],[24.937636,43.028925],[24.931837,43.023896],[24.931225,43.026112],[24.923978,43.025445],[24.921429,43.019818],[24.899812,43.021713],[24.901841,43.019312],[24.897448,43.020158],[24.889265,43.013944],[24.867725,43.019254],[24.857429,43.013994],[24.843844,43.017504],[24.82129,43.010883],[24.779508,43.009875],[24.775571,43.005869],[24.764384,43.008392],[24.763177,43.00529],[24.74918,43.006945],[24.746843,43.009749],[24.739997,43.003369],[24.741107,42.995622],[24.735143,42.99364],[24.737492,42.987932],[24.719881,42.987627],[24.709746,42.983745],[24.694242,42.986432],[24.687143,42.984056],[24.678262,42.986817],[24.678646,42.984754],[24.674489,42.993033],[24.685782,42.995479],[24.67706,42.998951],[24.668422,43.008994],[24.669272,43.015253],[24.66608,43.019746],[24.650545,43.022009],[24.650654,43.028336],[24.646932,43.032778],[24.650701,43.037186],[24.651086,43.04576],[24.655801,43.046148],[24.651955,43.046285],[24.655663,43.052741],[24.654817,43.05762],[24.663223,43.059614],[24.665819,43.065645],[24.651374,43.063566],[24.653635,43.060895],[24.650096,43.05923],[24.636352,43.068074],[24.62426,43.062704],[24.621043,43.058202],[24.60979,43.057375],[24.604584,43.061572],[24.60739,43.063225],[24.59555,43.062927],[24.591453,43.06859],[24.595419,43.07071],[24.596288,43.076804],[24.58472,43.073241],[24.584194,43.080094],[24.588934,43.080986],[24.568214,43.086815],[24.560507,43.085174],[24.557156,43.087176],[24.557857,43.093114],[24.550656,43.086919],[24.548126,43.093909],[24.534815,43.098032],[24.529574,43.095135],[24.523652,43.098618]]]]}},{"type":"Feature","properties":{"slug":"pleven","name_bg":"Плевен","name_en":"Pleven","source":"OpenStreetMap contributors, ODbL 1.0"},"geometry":{"type":"MultiPolygon","coordinates":[[[[24.395289,43.266154],[24.403665,43.270025],[24.403809,43.267193],[24.410249,43.264609],[24.438633,43.269591],[24.463777,43.254826],[24.475004,43.264517],[24.476205,43.270116],[24.491377,43.275282],[24.505594,43.274923],[24.513544,43.29046],[24.520925,43.294729],[24.535795,43.296709],[24.535444,43.329416],[24.530802,43.329511],[24.530767,43.334527],[24.537648,43.334585],[24.548711,43.342359],[24.542639,43.344076],[24.540281,43.340784],[24.535452,43.344064],[24.523462,43.341002],[24.523115,43.346334],[24.505526,43.349233],[24.497406,43.355748],[24.493468,43.365424],[24.47445,43.372962],[24.476927,43.382352],[24.468286,43.380274],[24.462998,43.38625],[24.482069,43.405954],[24.470289,43.408335],[24.466673,43.4149],[24.480917,43.419325],[24.478951,43.446227],[24.509374,43.439917],[24.510602,43.443918],[24.523207,43.442579],[24.525769,43.448199],[24.534873,43.444891],[24.536933,43.462716],[24.546659,43.458272],[24.55062,43.462555],[24.547144,43.464791],[24.546878,43.470215],[24.554293,43.470144],[24.549699,43.474435],[24.551955,43.477476],[24.555634,43.477135],[24.554986,43.472889],[24.55905,43.476784],[24.579791,43.470956],[24.583386,43.478771],[24.597993,43.483892],[24.626435,43.478249],[24.650392,43.485834],[24.649808,43.491045],[24.672411,43.490355],[24.675438,43.495806],[24.669612,43.498185],[24.679079,43.51131],[24.671805,43.516228],[24.680057,43.514358],[24.685789,43.507889],[24.694868,43.507514],[24.694745,43.498183],[24.711967,43.501591],[24.71516,43.506981],[24.711948,43.509893],[24.715279,43.512097],[24.695267,43.515038],[24.696539,43.520303],[24.677609,43.523485],[24.680351,43.531395],[24.688475,43.531705],[24.687651,43.533939],[24.70471,43.543919],[24.710208,43.543424],[24.715627,43.554813],[24.735241,43.558136],[24.753023,43.554047],[24.7632,43.558791],[24.770649,43.557324],[24.773833,43.566158],[24.795032,43.562928],[24.800987,43.56327],[24.80146,43.569631],[24.818899,43.567528],[24.814647,43.554495],[24.832076,43.553004],[24.846598,43.547178],[24.851533,43.541395],[24.837502,43.528951],[24.835418,43.522155],[24.83913,43.514678],[24.861725,43.514399],[24.903735,43.50365],[24.906779,43.506839],[24.914155,43.50486],[24.920012,43.498775],[24.915099,43.492272],[24.924287,43.486852],[24.956068,43.478804],[24.953332,43.4747],[24.947649,43.47493],[24.948539,43.469566],[24.938729,43.469266],[24.920191,43.452853],[24.914571,43.454533],[24.909281,43.450754],[24.895612,43.451325],[24.894978,43.443495],[24.890988,43.444058],[24.888306,43.437091],[24.875523,43.432771],[24.87468,43.43599],[24.85611,43.433406],[24.855808,43.430075],[24.844623,43.429016],[24.840315,43.417088],[24.833053,43.416006],[24.83331,43.413399],[24.795443,43.419303],[24.787738,43.424092],[24.774229,43.421585],[24.774193,43.418292],[24.760585,43.417563],[24.762194,43.402463],[24.758879,43.398435],[24.752916,43.39785],[24.74021,43.381602],[24.745532,43.380764],[24.74774,43.376293],[24.775775,43.367099],[24.775629,43.363715],[24.785445,43.360232],[24.809337,43.369719],[24.82678,43.371911],[24.826813,43.374482],[24.838238,43.37396],[24.842743,43.371148],[24.842111,43.368318],[24.848276,43.368262],[24.842574,43.364009],[24.840129,43.355869],[24.827063,43.348836],[24.822649,43.331208],[24.814694,43.3185],[24.81745,43.317923],[24.816547,43.314917],[24.81161,43.317224],[24.805941,43.314306],[24.754802,43.313114],[24.754485,43.305195],[24.741975,43.304667],[24.740628,43.295598],[24.728184,43.294276],[24.729406,43.288485],[24.714912,43.28695],[24.715756,43.28228],[24.69397,43.275749],[24.696049,43.273615],[24.685915,43.274891],[24.683543,43.267068],[24.687734,43.258105],[24.682642,43.250583],[24.669388,43.251227],[24.668288,43.26399],[24.653172,43.279268],[24.656258,43.251534],[24.648542,43.245785],[24.64439,43.246965],[24.643392,43.240023],[24.638538,43.238448],[24.641209,43.236687],[24.62975,43.231444],[24.631248,43.225315],[24.638312,43.22274],[24.627506,43.223268],[24.620341,43.22044],[24.61924,43.217085],[24.602837,43.214855],[24.600231,43.210397],[24.580295,43.203018],[24.574559,43.208991],[24.544155,43.209877],[24.535324,43.21342],[24.528648,43.211296],[24.498366,43.223533],[24.489519,43.223578],[24.481846,43.23092],[24.469374,43.22648],[24.461204,43.216501],[24.457387,43.216753],[24.43801,43.220369],[24.439125,43.222382],[24.43424,43.225009],[24.435788,43.228497],[24.428153,43.23084],[24.428313,43.248285],[24.399657,43.256367],[24.391562,43.255525],[24.389201,43.260944],[24.395289,43.266154]]]]}},{"type":"Feature","properties":{"slug":"haskovo","name_bg":"Хасково","name_en":"Haskovo","source":"OpenStreetMap contributors, ODbL 1.0"},"geometry":{"type":"MultiPolygon","coordinates":[[[[25.366724,41.841692],[25.356457,41.852812],[25.361368,41.857461],[25.346565,41.871385],[25.37274,41.863133],[25.376343,41.866307],[25.393937,41.867097],[25.413162,41.880197],[25.410045,41.889687],[25.398831,41.901653],[25.4055,41.907084],[25.415373,41.907911],[25.406471,41.915899],[25.42906,41.928786],[25.42795,41.934908],[25.431138,41.938878],[25.425115,41.941747],[25.422667,41.952001],[25.406277,41.959131],[25.407895,41.96639],[25.403477,41.970315],[25.38826,41.970697],[25.395689,41.976652],[25.407666,41.979445],[25.410383,41.986521],[25.425596,41.985761],[25.430212,41.988977],[25.436513,41.986986],[25.455934,41.990366],[25.46628,41.994382],[25.466155,42.000809],[25.479711,41.998269],[25.481921,42.002545],[25.498133,41.999924],[25.507289,41.994888],[25.515608,41.998356],[25.525018,41.996737],[25.52998,41.986013],[25.556981,41.983038],[25.56087,41.978223],[25.573158,41.976196],[25.576229,41.98378],[25.600346,41.981006],[25.643796,41.995497],[25.647213,41.988114],[25.654578,41.989275],[25.685209,42.000195],[25.68721,42.007088],[25.695882,42.010839],[25.70599,42.026364],[25.712671,42.028803],[25.720016,42.03787],[25.72471,42.035756],[25.725291,42.024064],[25.729663,42.019794],[25.757458,42.01221],[25.755145,42.008472],[25.758341,41.999075],[25.751485,41.992126],[25.763531,41.985729],[25.75926,41.97674],[25.750432,41.97858],[25.754316,41.958099],[25.757265,41.955555],[25.780452,41.956618],[25.78519,41.945686],[25.801555,41.943168],[25.800234,41.939961],[25.821932,41.938321],[25.819435,41.927371],[25.808433,41.92651],[25.811195,41.907832],[25.822354,41.901526],[25.817066,41.896306],[25.79994,41.894974],[25.802963,41.88796],[25.813282,41.885982],[25.811789,41.88049],[25.813559,41.882669],[25.832794,41.882307],[25.845717,41.87767],[25.854907,41.866054],[25.854744,41.862134],[25.840171,41.859582],[25.84136,41.855329],[25.837531,41.854291],[25.835717,41.845151],[25.84429,41.835947],[25.837612,41.831523],[25.837068,41.826895],[25.840182,41.824784],[25.823237,41.820794],[25.81544,41.823515],[25.802721,41.818973],[25.781605,41.831421],[25.75433,41.837366],[25.742132,41.830631],[25.739243,41.820551],[25.730657,41.814998],[25.725087,41.804894],[25.705241,41.806136],[25.697345,41.799878],[25.694639,41.802857],[25.673096,41.802095],[25.669778,41.81142],[25.673275,41.811639],[25.671262,41.816595],[25.666653,41.81835],[25.663859,41.827115],[25.656738,41.833082],[25.659499,41.838273],[25.655454,41.843696],[25.645951,41.839588],[25.636505,41.842236],[25.637406,41.836231],[25.620652,41.834478],[25.62454,41.826727],[25.623692,41.816943],[25.619914,41.817197],[25.617232,41.810474],[25.61141,41.808552],[25.613188,41.805547],[25.609922,41.801805],[25.589829,41.806631],[25.583868,41.804435],[25.580288,41.796189],[25.585745,41.792325],[25.575808,41.77941],[25.568504,41.782069],[25.560793,41.774447],[25.560723,41.768693],[25.555166,41.769077],[25.559674,41.762154],[25.557564,41.757161],[25.546103,41.758777],[25.541183,41.752222],[25.534226,41.759889],[25.528172,41.756402],[25.519435,41.757922],[25.515676,41.763868],[25.517644,41.767668],[25.510574,41.769425],[25.495658,41.768742],[25.483927,41.762316],[25.476733,41.76941],[25.469714,41.770917],[25.458306,41.785077],[25.45336,41.781923],[25.452459,41.789216],[25.444087,41.793539],[25.434732,41.790613],[25.42008,41.794293],[25.414049,41.788003],[25.406763,41.789007],[25.40389,41.793757],[25.391968,41.799948],[25.392194,41.807332],[25.387762,41.808685],[25.381975,41.818471],[25.384531,41.819464],[25.384523,41.830599],[25.375017,41.841501],[25.366724,41.841692]]]]}},{"type":"Feature","properties":{"slug":"sliven","name_bg":"Сливен","name_en":"Sliven","source":"OpenStreetMap contributors, ODbL 1.0"},"geometry":{"type":"MultiPolygon","coordinates":[[[[26.039182,42.866817],[26.036362,42.868708],[26.038642,42.870781],[26.05035,42.866528],[26.049476,42.868958],[26.062616,42.870712],[26.072951,42.87923],[26.090818,42.880624],[26.113025,42.897369],[26.133076,42.896499],[26.140345,42.900647],[26.143872,42.898594],[26.150149,42.901126],[26.161116,42.9164],[26.164905,42.916027],[26.174173,42.930969],[26.167976,42.931156],[26.17196,42.938824],[26.164686,42.947255],[26.165152,42.95143],[26.178588,42.951609],[26.190712,42.944933],[26.187498,42.939734],[26.193071,42.930824],[26.211461,42.927545],[26.216924,42.921573],[26.209388,42.912987],[26.210068,42.905518],[26.200248,42.903072],[26.197658,42.894165],[26.2077,42.889833],[26.203833,42.885313],[26.208337,42.880704],[26.20756,42.872185],[26.235246,42.851622],[26.230586,42.850803],[26.226788,42.833672],[26.244046,42.831131],[26.2862849,42.8341401],[26.277664,42.830931],[26.291622,42.823422],[26.312717,42.821671],[26.32396,42.814606],[26.335636,42.800239],[26.324896,42.786669],[26.318112,42.783539],[26.322119,42.778274],[26.314051,42.77457],[26.314306,42.771062],[26.354756,42.767119],[26.366231,42.769398],[26.367269,42.776316],[26.364728,42.778043],[26.379241,42.783032],[26.376997,42.787161],[26.380054,42.789261],[26.375433,42.791684],[26.382129,42.794942],[26.390742,42.794488],[26.4017308,42.7855022],[26.409905,42.785797],[26.41678,42.79143],[26.440099,42.798903],[26.447366,42.794285],[26.464109,42.792755],[26.500633,42.7939211],[26.499515,42.786369],[26.506491,42.782548],[26.516759,42.756544],[26.516749,42.75005],[26.505449,42.746305],[26.499384,42.738985],[26.500646,42.731626],[26.511617,42.716654],[26.509768,42.710371],[26.518618,42.710217],[26.521695,42.70429],[26.530347,42.701665],[26.558767,42.70017],[26.565728,42.694272],[26.56759,42.685877],[26.581377,42.679392],[26.587912,42.682608],[26.608236,42.681925],[26.613908,42.685373],[26.613512,42.689344],[26.630064,42.686442],[26.63452,42.68833],[26.634283,42.695665],[26.640081,42.693899],[26.637133,42.689931],[26.642985,42.680024],[26.651391,42.676758],[26.668726,42.676802],[26.671849,42.6663],[26.668236,42.659504],[26.671934,42.647576],[26.669137,42.646752],[26.672494,42.637425],[26.664736,42.637442],[26.664251,42.632329],[26.656922,42.631818],[26.659963,42.617363],[26.644869,42.617754],[26.64498,42.611183],[26.618376,42.613638],[26.626179,42.623003],[26.634541,42.62203],[26.632677,42.625921],[26.622056,42.626992],[26.614106,42.624006],[26.611025,42.603172],[26.600566,42.597075],[26.574929,42.593691],[26.577944,42.584836],[26.583771,42.583024],[26.552043,42.56821],[26.52365,42.573197],[26.522268,42.578392],[26.513525,42.577918],[26.517169,42.573672],[26.501895,42.569279],[26.49521,42.560216],[26.496619,42.557449],[26.479071,42.556593],[26.478089,42.553178],[26.461696,42.550266],[26.440126,42.56124],[26.434986,42.569328],[26.426244,42.57423],[26.418574,42.565291],[26.423181,42.563993],[26.422308,42.560938],[26.409552,42.556848],[26.413195,42.553599],[26.412779,42.54844],[26.398584,42.540204],[26.391584,42.539683],[26.392606,42.532404],[26.396828,42.529646],[26.397718,42.51798],[26.410134,42.508325],[26.404646,42.497458],[26.377835,42.495408],[26.36945,42.478349],[26.358338,42.477549],[26.358749,42.464809],[26.361376,42.462292],[26.338562,42.464805],[26.33379,42.458685],[26.340706,42.454142],[26.32542,42.449486],[26.321834,42.453962],[26.314501,42.450814],[26.315669,42.448755],[26.302619,42.448659],[26.300808,42.457654],[26.285708,42.459858],[26.287197,42.45175],[26.271854,42.45232],[26.271774,42.46113],[26.264808,42.460094],[26.262496,42.465198],[26.246944,42.472436],[26.238474,42.467639],[26.232429,42.469777],[26.223585,42.454394],[26.200664,42.455502],[26.199654,42.452512],[26.194341,42.45288],[26.193367,42.444829],[26.181878,42.444389],[26.182477,42.450168],[26.177141,42.449207],[26.179824,42.451473],[26.170188,42.452988],[26.180001,42.47173],[26.177578,42.47633],[26.172318,42.477634],[26.171165,42.49237],[26.168021,42.494104],[26.18188,42.491517],[26.184287,42.502243],[26.198426,42.504246],[26.186806,42.526002],[26.190206,42.526633],[26.18592,42.534117],[26.190797,42.535646],[26.180306,42.552962],[26.179436,42.561441],[26.156265,42.55547],[26.14005,42.556251],[26.126155,42.563308],[26.125192,42.565345],[26.128663,42.565951],[26.119248,42.575719],[26.121396,42.586135],[26.10933,42.592534],[26.092466,42.594009],[26.093159,42.59781],[26.091194,42.595737],[26.088994,42.598559],[26.083805,42.598016],[26.08438,42.602051],[26.080713,42.605033],[26.083816,42.605857],[26.068089,42.619957],[26.074168,42.627939],[26.071723,42.63852],[26.073982,42.642181],[26.070577,42.644113],[26.074121,42.647562],[26.072374,42.653322],[26.091807,42.658851],[26.093479,42.661722],[26.088923,42.674092],[26.10062,42.683695],[26.103148,42.689595],[26.098111,42.692565],[26.095866,42.703844],[26.11994,42.708384],[26.133049,42.696537],[26.13902,42.695558],[26.145906,42.704742],[26.166344,42.720272],[26.146567,42.722594],[26.143508,42.729336],[26.147949,42.732785],[26.143389,42.733117],[26.147628,42.736334],[26.140134,42.736966],[26.141914,42.739716],[26.139334,42.745881],[26.119983,42.746073],[26.113623,42.751345],[26.114615,42.758172],[26.109391,42.762263],[26.111721,42.762937],[26.111261,42.768804],[26.098444,42.77886],[26.100417,42.786248],[26.097035,42.791403],[26.101253,42.796562],[26.099713,42.804952],[26.091151,42.80795],[26.096787,42.822183],[26.061303,42.810001],[26.049566,42.810486],[26.040472,42.817181],[26.058097,42.825762],[26.056678,42.836088],[26.065741,42.84815],[26.058365,42.857177],[26.039182,42.866817]]]]}},{"type":"Feature","properties":{"slug":"stara-zagora","name_bg":"Стара Загора","name_en":"Stara Zagora","source":"OpenStreetMap contributors, ODbL 1.0"},"geometry":{"type":"MultiPolygon","coordinates":[[[[25.279535,42.479139],[25.286351,42.48398],[25.296411,42.483819],[25.304766,42.481978],[25.31043,42.473336],[25.336591,42.47381],[25.347616,42.482367],[25.366194,42.483048],[25.378915,42.489151],[25.380402,42.496226],[25.387509,42.500526],[25.391652,42.517059],[25.40337,42.520255],[25.408894,42.516674],[25.420108,42.521785],[25.43219,42.511573],[25.443534,42.513293],[25.457547,42.507286],[25.4676591,42.5106967],[25.474185,42.505727],[25.473556,42.501448],[25.479037,42.495984],[25.491875,42.487788],[25.501627,42.487523],[25.52366,42.496378],[25.529048,42.494016],[25.531398,42.499729],[25.540485,42.504614],[25.535997,42.508489],[25.553352,42.511178],[25.557322,42.518283],[25.563657,42.521528],[25.577801,42.522254],[25.578096,42.530553],[25.607062,42.523571],[25.615833,42.524726],[25.61862,42.528916],[25.627945,42.522176],[25.635452,42.524361],[25.638028,42.520651],[25.653704,42.521599],[25.661446,42.530708],[25.657633,42.533527],[25.680684,42.535949],[25.692013,42.551919],[25.697538,42.552214],[25.708239,42.545197],[25.727789,42.55234],[25.733667,42.54828],[25.732966,42.543989],[25.738008,42.537518],[25.777166,42.548119],[25.780465,42.553228],[25.791429,42.557519],[25.806839,42.551828],[25.828959,42.561261],[25.844842,42.556828],[25.847734,42.548032],[25.860474,42.536726],[25.862248,42.537961],[25.875333,42.523072],[25.877138,42.510499],[25.882474,42.512929],[25.894727,42.496951],[25.899092,42.495413],[25.914373,42.472557],[25.907073,42.470654],[25.911117,42.464832],[25.879423,42.456996],[25.882713,42.447245],[25.873702,42.445755],[25.883494,42.420699],[25.898326,42.420009],[25.904829,42.387669],[25.90068,42.385404],[25.909726,42.366398],[25.897474,42.366667],[25.890014,42.355841],[25.887509,42.356869],[25.890985,42.352252],[25.87775,42.357096],[25.867011,42.36912],[25.860136,42.371817],[25.846349,42.388615],[25.834036,42.396286],[25.805527,42.394997],[25.804167,42.390703],[25.797804,42.387464],[25.800319,42.384354],[25.798348,42.377042],[25.793197,42.373969],[25.786906,42.379069],[25.781261,42.371658],[25.764511,42.377764],[25.751605,42.372245],[25.748267,42.374816],[25.735483,42.373259],[25.737465,42.364772],[25.724921,42.359826],[25.701246,42.358455],[25.7037,42.3499],[25.687844,42.344478],[25.690144,42.342057],[25.684301,42.338649],[25.686791,42.335344],[25.683508,42.333187],[25.697205,42.310519],[25.706497,42.312221],[25.708139,42.305143],[25.721864,42.300748],[25.732916,42.303646],[25.736856,42.308609],[25.752693,42.304444],[25.751555,42.301669],[25.759307,42.299902],[25.765204,42.283318],[25.75286,42.275321],[25.735052,42.271959],[25.718935,42.278939],[25.709991,42.287496],[25.687276,42.290748],[25.669386,42.296985],[25.669906,42.299009],[25.659132,42.298084],[25.658483,42.282746],[25.652609,42.285177],[25.637469,42.270332],[25.628138,42.266431],[25.638219,42.249052],[25.634819,42.247297],[25.639705,42.239458],[25.629757,42.236501],[25.630098,42.232895],[25.619029,42.228329],[25.62265,42.21804],[25.617049,42.217859],[25.618214,42.221029],[25.614439,42.225523],[25.61439,42.215297],[25.603152,42.210216],[25.613534,42.210245],[25.609238,42.200957],[25.597658,42.197576],[25.596086,42.190031],[25.593589,42.190014],[25.590696,42.201151],[25.590832,42.194621],[25.582011,42.195367],[25.553793,42.207143],[25.539838,42.19864],[25.540293,42.192842],[25.53008,42.190607],[25.528158,42.179761],[25.52213,42.181417],[25.523725,42.194215],[25.501256,42.205308],[25.495852,42.203008],[25.481474,42.210324],[25.485376,42.224024],[25.4616829,42.2357848],[25.466616,42.238984],[25.469591,42.237168],[25.475044,42.243282],[25.490914,42.249917],[25.497947,42.248644],[25.49937,42.26292],[25.507347,42.263854],[25.506052,42.266265],[25.511988,42.269975],[25.510373,42.277188],[25.51455,42.277576],[25.516899,42.28332],[25.511709,42.30026],[25.49846,42.311186],[25.490501,42.312996],[25.4901261,42.3159579],[25.485613,42.3117012],[25.4888555,42.311048],[25.4902208,42.305136],[25.4783931,42.3020715],[25.47594,42.3080093],[25.4768173,42.2996522],[25.4696336,42.2998895],[25.4643965,42.2949246],[25.4553056,42.3047599],[25.4348607,42.3081929],[25.4331773,42.3221697],[25.4207265,42.327783],[25.425577,42.3361595],[25.4296846,42.3377095],[25.4384354,42.3554704],[25.450733,42.3571733],[25.4514158,42.3611856],[25.4566638,42.3621547],[25.455679,42.364765],[25.434149,42.361765],[25.421022,42.366542],[25.410746,42.365583],[25.406863,42.37053],[25.395398,42.373034],[25.387525,42.378606],[25.385498,42.377067],[25.387981,42.372978],[25.37747,42.368605],[25.365242,42.366941],[25.344418,42.371492],[25.343419,42.374749],[25.352439,42.372662],[25.3513745,42.3842115],[25.36402,42.381852],[25.378634,42.387862],[25.36664,42.39849],[25.362706,42.411469],[25.360326,42.40936],[25.349755,42.410906],[25.353136,42.41715],[25.349439,42.418168],[25.353726,42.421304],[25.34141,42.423468],[25.339391,42.428743],[25.332566,42.432046],[25.32184,42.431517],[25.31513,42.434832],[25.315908,42.436844],[25.302573,42.436631],[25.285836,42.451089],[25.283807,42.465375],[25.289208,42.467878],[25.281752,42.472242],[25.279535,42.479139]]]]}},{"type":"Feature","properties":{"slug":"kardzhali","name_bg":"Кърджали","name_en":"Kardzhali","source":"OpenStreetMap contributors, ODbL 1.0"},"geometry":{"type":"MultiPolygon","coordinates":[[[[25.120134,41.73414],[25.132855,41.747408],[25.157108,41.751644],[25.167247,41.748014],[25.169542,41.750874],[25.188088,41.748511],[25.197199,41.753486],[25.212367,41.750503],[25.216545,41.735191],[25.22473,41.72868],[25.224654,41.72574],[25.227598,41.724401],[25.245484,41.723548],[25.248743,41.735439],[25.256963,41.738744],[25.267178,41.734995],[25.268488,41.725859],[25.287115,41.734657],[25.289324,41.72924],[25.294899,41.729455],[25.296346,41.72558],[25.305421,41.731138],[25.30464,41.72346],[25.307323,41.720622],[25.305096,41.716021],[25.316471,41.713511],[25.320601,41.717387],[25.331871,41.716904],[25.333108,41.706469],[25.338319,41.70132],[25.343154,41.700765],[25.345894,41.704504],[25.349628,41.701712],[25.358592,41.703048],[25.363447,41.71176],[25.372966,41.70265],[25.387959,41.716309],[25.386106,41.727857],[25.396623,41.735312],[25.394979,41.73873],[25.400933,41.744808],[25.388585,41.75376],[25.404941,41.766241],[25.415401,41.766829],[25.414285,41.774927],[25.41062,41.77674],[25.412123,41.780068],[25.405907,41.78478],[25.406763,41.789007],[25.414049,41.788003],[25.42008,41.794293],[25.434732,41.790613],[25.444087,41.793539],[25.452459,41.789216],[25.45336,41.781923],[25.458306,41.785077],[25.469714,41.770917],[25.476733,41.76941],[25.483927,41.762316],[25.495658,41.768742],[25.510574,41.769425],[25.517644,41.767668],[25.515676,41.763868],[25.519435,41.757922],[25.528172,41.756402],[25.534226,41.759889],[25.541183,41.752222],[25.54621,41.758801],[25.562788,41.755825],[25.5912,41.761739],[25.587758,41.752277],[25.589698,41.749019],[25.598619,41.744878],[25.602697,41.746578],[25.606517,41.740447],[25.631997,41.731401],[25.631977,41.715781],[25.635744,41.710926],[25.632148,41.706896],[25.638019,41.697658],[25.645416,41.69368],[25.646382,41.687797],[25.632995,41.662379],[25.602065,41.641794],[25.573583,41.640572],[25.55433,41.646178],[25.546522,41.640617],[25.516913,41.634876],[25.527576,41.615702],[25.504947,41.60883],[25.498403,41.599154],[25.483203,41.590515],[25.470939,41.596154],[25.455023,41.592746],[25.446907,41.594101],[25.448645,41.599675],[25.445585,41.603289],[25.440967,41.603385],[25.437628,41.599649],[25.410312,41.600466],[25.407173,41.598976],[25.405178,41.588885],[25.395082,41.58787],[25.398192,41.581258],[25.395593,41.578519],[25.365073,41.5697],[25.347511,41.568287],[25.346176,41.564517],[25.337176,41.562372],[25.330162,41.556499],[25.298307,41.557731],[25.286494,41.554048],[25.267836,41.560408],[25.264452,41.558575],[25.252164,41.5661529],[25.235987,41.569303],[25.247132,41.580283],[25.223058,41.586876],[25.223342,41.590338],[25.231063,41.591978],[25.215619,41.599485],[25.216903,41.613922],[25.221591,41.615602],[25.221395,41.62035],[25.234724,41.623405],[25.238643,41.636779],[25.249909,41.644884],[25.250386,41.651802],[25.258489,41.651214],[25.275727,41.657673],[25.274373,41.663058],[25.270737,41.658853],[25.265621,41.659212],[25.26378,41.665187],[25.270457,41.670007],[25.269047,41.673413],[25.254034,41.670236],[25.247317,41.676626],[25.246823,41.683695],[25.236676,41.684508],[25.231485,41.698708],[25.234289,41.702494],[25.230159,41.703755],[25.221138,41.721663],[25.224494,41.727968],[25.211808,41.72587],[25.206967,41.720369],[25.175462,41.721204],[25.168679,41.71736],[25.144484,41.71972],[25.140252,41.725453],[25.131455,41.726279],[25.130077,41.732592],[25.12735,41.730925],[25.120134,41.73414]]]]}},{"type":"Feature","properties":{"slug":"plovdiv","name_bg":"Пловдив","name_en":"Plovdiv","source":"OpenStreetMap contributors, ODbL 1.0"},"geometry":{"type":"MultiPolygon","coordinates":[[[[24.6782966,42.151031],[24.6900646,42.152812],[24.6874596,42.154361],[24.6863266,42.166679],[24.6765916,42.168637],[24.6765626,42.174281],[24.6829146,42.175933],[24.6850606,42.170374],[24.6946646,42.175059],[24.7064306,42.172588],[24.710171,42.1758162],[24.7052846,42.179413],[24.7125136,42.176483],[24.7119346,42.196122],[24.7360266,42.195201],[24.7559206,42.198231],[24.768194,42.185861],[24.777494,42.186128],[24.778345,42.175901],[24.805574,42.176901],[24.809588,42.171617],[24.806894,42.165968],[24.816301,42.167756],[24.808,42.152502],[24.824029,42.150819],[24.823767,42.142931],[24.799561,42.1278949],[24.791746,42.111902],[24.781992,42.107603],[24.780298,42.110022],[24.776216,42.108557],[24.773821,42.113691],[24.768575,42.111452],[24.767614,42.114039],[24.767439,42.109278],[24.760214,42.108309],[24.762468,42.104612],[24.755411,42.102709],[24.75498,42.10565],[24.759798,42.10795],[24.743811,42.111784],[24.731458,42.097463],[24.725175,42.099355],[24.72302,42.095498],[24.704686,42.091837],[24.69995,42.09377],[24.697305,42.090009],[24.687884,42.091794],[24.68194,42.097456],[24.666822,42.098622],[24.669326,42.106127],[24.663641,42.106023],[24.668371,42.110334],[24.665075,42.118582],[24.66649,42.133188],[24.65772,42.133913],[24.659094,42.139753],[24.674932,42.139086],[24.675199,42.141775],[24.680315,42.141618],[24.6782966,42.151031]]]]}},{"type":"Feature","properties":{"slug":"pazardzhik","name_bg":"Пазарджик","name_en":"Pazardzik","source":"OpenStreetMap contributors, ODbL 1.0"},"geometry":{"type":"MultiPolygon","coordinates":[[[[24.152135,42.103087],[24.154119,42.108398],[24.150909,42.123612],[24.154901,42.128844],[24.163752,42.130776],[24.164534,42.144789],[24.174021,42.148535],[24.187761,42.147844],[24.186566,42.157979],[24.19554,42.157546],[24.190952,42.172231],[24.216455,42.184686],[24.212463,42.188729],[24.227943,42.189402],[24.242517,42.212627],[24.237367,42.215029],[24.221881,42.213913],[24.221818,42.21778],[24.215683,42.216568],[24.213962,42.221624],[24.216181,42.220714],[24.22375,42.229276],[24.218036,42.235115],[24.21949,42.240513],[24.213648,42.241838],[24.21413,42.246502],[24.209716,42.245773],[24.205603,42.254275],[24.197985,42.257241],[24.20072,42.263563],[24.197028,42.265223],[24.201071,42.267869],[24.212337,42.266376],[24.238158,42.270154],[24.241624,42.265191],[24.246446,42.26777],[24.243803,42.271032],[24.255589,42.264502],[24.261534,42.271516],[24.265227,42.270189],[24.268359,42.277676],[24.281995,42.276083],[24.286864,42.290217],[24.292464,42.287278],[24.284873,42.29784],[24.279087,42.298781],[24.263935,42.309727],[24.270642,42.320347],[24.254328,42.324772],[24.243254,42.333591],[24.240479,42.34062],[24.245622,42.341149],[24.242776,42.34228],[24.248692,42.347432],[24.246447,42.351501],[24.255756,42.354004],[24.256984,42.349551],[24.259943,42.351093],[24.261717,42.349819],[24.257524,42.348904],[24.262982,42.347234],[24.261249,42.353782],[24.264749,42.356826],[24.277044,42.353389],[24.278076,42.350113],[24.274864,42.350409],[24.280518,42.348085],[24.298795,42.354164],[24.301156,42.360987],[24.299409,42.366527],[24.305508,42.366092],[24.303975,42.36788],[24.309146,42.374111],[24.317323,42.374084],[24.322,42.36803],[24.325901,42.369168],[24.324005,42.373272],[24.328226,42.370472],[24.327488,42.372877],[24.343195,42.375823],[24.347888,42.369263],[24.368097,42.372244],[24.365684,42.377632],[24.375802,42.372262],[24.379191,42.375601],[24.389908,42.365345],[24.400996,42.362856],[24.403258,42.35761],[24.410658,42.358506],[24.4238,42.351791],[24.432803,42.353823],[24.436656,42.357485],[24.434661,42.359826],[24.43685,42.362876],[24.468222,42.342656],[24.470433,42.337742],[24.466229,42.33712],[24.484764,42.323198],[24.483129,42.314767],[24.475221,42.309829],[24.479799,42.30543],[24.469978,42.29855],[24.461073,42.302914],[24.452168,42.292988],[24.470975,42.281186],[24.475039,42.275647],[24.473101,42.266266],[24.489151,42.264185],[24.489087,42.250836],[24.496637,42.227172],[24.491528,42.189764],[24.498795,42.191901],[24.499136,42.18072],[24.517929,42.180947],[24.518607,42.163785],[24.535752,42.161368],[24.535824,42.150784],[24.512272,42.146229],[24.502734,42.14171],[24.499402,42.134333],[24.491284,42.138124],[24.491887,42.145169],[24.470911,42.146165],[24.462732,42.139856],[24.443158,42.136317],[24.454522,42.13379],[24.439085,42.135279],[24.449254,42.133341],[24.443022,42.12465],[24.431441,42.124264],[24.432779,42.117544],[24.438134,42.114691],[24.436922,42.112553],[24.405618,42.108408],[24.395338,42.110609],[24.383007,42.106343],[24.365887,42.10675],[24.343987,42.13564],[24.332511,42.13994],[24.328542,42.133978],[24.32658,42.135864],[24.29693,42.114923],[24.281739,42.115785],[24.282726,42.108555],[24.277447,42.101368],[24.27899,42.095872],[24.275906,42.094248],[24.273686,42.08211],[24.260626,42.069256],[24.213874,42.050151],[24.185964,42.060007],[24.172144,42.077895],[24.173931,42.083027],[24.157303,42.089577],[24.152135,42.103087]]]]}},{"type":"Feature","properties":{"slug":"smolyan","name_bg":"Смолян","name_en":"Smolian","source":"OpenStreetMap contributors, ODbL 1.0"},"geometry":{"type":"MultiPolygon","coordinates":[[[[24.435601,41.641623],[24.436832,41.643665],[24.433041,41.645402],[24.439387,41.65424],[24.462205,41.647219],[24.46913,41.652053],[24.471766,41.661585],[24.47914,41.657854],[24.486643,41.663],[24.48824,41.658036],[24.493394,41.659863],[24.492692,41.655674],[24.4978041,41.6573375],[24.4992838,41.654774],[24.507001,41.668852],[24.518377,41.67748],[24.518738,41.686268],[24.524289,41.69182],[24.515306,41.698456],[24.5034656,41.7015769],[24.532728,41.695245],[24.545548,41.70907],[24.551221,41.71105],[24.564824,41.734831],[24.563218,41.742705],[24.568196,41.750287],[24.56887,41.757806],[24.590062,41.746653],[24.590117,41.736735],[24.615376,41.720658],[24.613374,41.717486],[24.616123,41.711817],[24.626351,41.713204],[24.630713,41.705391],[24.63767,41.706843],[24.648476,41.693463],[24.655095,41.691548],[24.656801,41.68641],[24.662974,41.685567],[24.662608,41.666875],[24.667111,41.669005],[24.670521,41.677218],[24.67428,41.672592],[24.678658,41.675856],[24.685258,41.673366],[24.687628,41.66967],[24.684712,41.666554],[24.686071,41.657554],[24.693279,41.651945],[24.690339,41.643164],[24.715993,41.652833],[24.712964,41.657901],[24.714714,41.669529],[24.724913,41.670834],[24.724771,41.671046],[24.722575,41.670686],[24.720973,41.670796],[24.720187,41.671557],[24.725209,41.671315],[24.725965,41.67562],[24.727411,41.672092],[24.732133,41.672792],[24.730064,41.675329],[24.734783,41.677558],[24.733283,41.679972],[24.744276,41.68291],[24.739139,41.690821],[24.747622,41.690352],[24.753308,41.704306],[24.750824,41.713436],[24.75942,41.712322],[24.77257,41.726744],[24.787852,41.731593],[24.785907,41.725872],[24.789771,41.718752],[24.79949,41.718846],[24.800481,41.711329],[24.805908,41.712077],[24.812598,41.70596],[24.832594,41.703564],[24.833767,41.700293],[24.828068,41.692835],[24.836338,41.693501],[24.835426,41.687615],[24.842785,41.683083],[24.848594,41.683672],[24.85166,41.688146],[24.852154,41.700052],[24.856061,41.705351],[24.87157,41.707413],[24.874893,41.696802],[24.886089,41.681639],[24.892181,41.678493],[24.890569,41.66956],[24.914258,41.664805],[24.920756,41.659129],[24.901261,41.655404],[24.902768,41.650765],[24.907404,41.650094],[24.905729,41.645033],[24.909608,41.634129],[24.906602,41.630075],[24.914175,41.625886],[24.912607,41.621876],[24.915117,41.618395],[24.920468,41.618157],[24.919992,41.60904],[24.929191,41.611075],[24.940394,41.619266],[24.955256,41.610508],[24.950804,41.606219],[24.924012,41.602219],[24.914491,41.589028],[24.917859,41.578967],[24.910613,41.576279],[24.912064,41.567571],[24.907952,41.558486],[24.910814,41.554513],[24.899809,41.553547],[24.894559,41.548055],[24.893059,41.537491],[24.882267,41.539265],[24.862177,41.531391],[24.844445,41.538433],[24.841084,41.534089],[24.823727,41.5338],[24.829726,41.529982],[24.828837,41.526899],[24.821316,41.531175],[24.812108,41.529199],[24.815667,41.519473],[24.809529,41.519389],[24.811888,41.518145],[24.808247,41.51711],[24.807679,41.512996],[24.812542,41.51199],[24.811961,41.507186],[24.792677,41.508093],[24.795678,41.494635],[24.788598,41.49822],[24.78202,41.495351],[24.773168,41.472406],[24.767109,41.466536],[24.766779,41.458547],[24.749658,41.44935],[24.750946,41.443848],[24.749809,41.439894],[24.744325,41.437845],[24.74442,41.430171],[24.73213,41.42719],[24.7224528,41.416173],[24.7089003,41.4211935],[24.6933833,41.4182086],[24.6824262,41.4249759],[24.6738612,41.4179841],[24.6613072,41.4187513],[24.6600705,41.4158374],[24.6580745,41.4269839],[24.6644044,41.4325242],[24.6577858,41.4351356],[24.6492152,41.4348533],[24.642319,41.4307843],[24.6279931,41.4318561],[24.6144601,41.4238513],[24.6080919,41.4276786],[24.6062465,41.4341119],[24.6007987,41.4349946],[24.5957562,41.4478827],[24.5995682,41.4562679],[24.5964979,41.4646558],[24.5849456,41.4686232],[24.5798595,41.4743067],[24.5723999,41.4750688],[24.5688568,41.4913584],[24.5588407,41.5017315],[24.5624144,41.507043],[24.5626355,41.5172643],[24.5556628,41.5245141],[24.5579502,41.5270479],[24.5561485,41.5307161],[24.5461792,41.5392639],[24.5534349,41.5505873],[24.5429461,41.557825],[24.5353816,41.5551141],[24.5330084,41.55769],[24.5351392,41.5650787],[24.5253994,41.5687475],[24.5094768,41.5585307],[24.4990387,41.5586617],[24.501893,41.571653],[24.486143,41.582178],[24.47687,41.57908],[24.477255,41.582581],[24.464338,41.590487],[24.4694,41.603048],[24.46568,41.615053],[24.442018,41.612307],[24.427106,41.61501],[24.432814,41.621241],[24.435803,41.631722],[24.44508,41.637701],[24.435601,41.641623]]]]}},{"type":"Feature","properties":{"slug":"blagoevgrad","name_bg":"Благоевград","name_en":"Blagoevgrad","source":"OpenStreetMap contributors, ODbL 1.0"},"geometry":{"type":"MultiPolygon","coordinates":[[[[22.8636284,42.0016037],[22.866029,42.008512],[22.87007,42.010551],[22.866042,42.022332],[22.867818,42.024471],[22.879189,42.032866],[22.883671,42.032527],[22.887429,42.026049],[22.893085,42.026712],[22.903111,42.046119],[22.912683,42.04862],[22.901244,42.060232],[22.900801,42.066107],[22.918158,42.079134],[22.927542,42.079706],[22.940523,42.0968],[22.956766,42.092379],[22.960738,42.072407],[22.975714,42.065694],[22.997878,42.063821],[23.016752,42.067997],[23.027677,42.066913],[23.025641,42.056549],[23.032693,42.05415],[23.034829,42.047057],[23.052148,42.044398],[23.052991,42.04176],[23.056366,42.042056],[23.057333,42.046678],[23.076155,42.052098],[23.077357,42.048897],[23.086979,42.050742],[23.09333,42.060598],[23.114697,42.058886],[23.133365,42.062634],[23.149535,42.07602],[23.175179,42.081763],[23.183099,42.093986],[23.19925,42.098765],[23.202821,42.094443],[23.214914,42.094554],[23.220767,42.090051],[23.234079,42.093969],[23.247179,42.090158],[23.263187,42.090703],[23.269288,42.087615],[23.269715,42.083744],[23.279996,42.081124],[23.296509,42.082512],[23.30889,42.079805],[23.319956,42.066957],[23.389543,42.060677],[23.409184,42.052949],[23.421369,42.053537],[23.443176,42.061342],[23.439713,42.047086],[23.442051,42.039504],[23.428553,42.037927],[23.423621,42.034294],[23.425323,42.021256],[23.411455,42.014093],[23.407899,42.008997],[23.400031,42.008964],[23.399234,42.004051],[23.392545,41.998583],[23.377776,42.000674],[23.365756,41.97743],[23.331147,41.983525],[23.311593,41.995255],[23.296639,41.99555],[23.289581,42.01012],[23.266003,42.018056],[23.252763,42.007312],[23.251617,42.001934],[23.2441,42.003297],[23.225992,41.996019],[23.219654,41.990086],[23.208825,41.988629],[23.204501,41.976626],[23.190803,41.961961],[23.182362,41.961958],[23.172943,41.956651],[23.153672,41.955915],[23.145786,41.943349],[23.132864,41.936525],[23.111925,41.933859],[23.111652,41.939166],[23.094759,41.947307],[23.1036166,41.9559235],[23.094685,41.960547],[23.0723,41.959032],[23.062799,41.963177],[23.053594,41.953551],[23.051074,41.961545],[23.045835,41.959411],[23.034694,41.952977],[23.03392,41.947034],[23.037897,41.941507],[23.03421,41.931663],[23.037834,41.928978],[23.034131,41.922865],[23.039453,41.915829],[23.036663,41.909388],[23.022308,41.90263],[23.025241,41.889331],[23.015006,41.874494],[23.013803,41.864168],[23.009795,41.860982],[23.001122,41.861796],[22.990749,41.856786],[22.982863,41.857085],[22.976911,41.850807],[22.977577,41.845574],[22.968643,41.845636],[22.963962,41.842356],[22.961899,41.845841],[22.954126,41.845575],[22.944891,41.851959],[22.93374,41.847934],[22.927846,41.862193],[22.9162824,41.8767879],[22.902232,41.876325],[22.899057,41.887588],[22.901725,41.89127],[22.89695,41.897553],[22.899335,41.90391],[22.89354,41.91048],[22.894157,41.915077],[22.890852,41.919596],[22.882506,41.921996],[22.873801,41.935989],[22.878064,41.942482],[22.875098,41.944657],[22.873711,41.954674],[22.87855,41.975716],[22.873962,41.978975],[22.875661,41.996796],[22.8636284,42.0016037]]]]}},{"type":"Feature","properties":{"slug":"pernik","name_bg":"Перник","name_en":"Pernik","source":"OpenStreetMap contributors, ODbL 1.0"},"geometry":{"type":"MultiPolygon","coordinates":[[[[22.854511,42.626191],[22.857221,42.628481],[22.861504,42.626329],[22.866201,42.628606],[22.873335,42.638912],[22.874339,42.647964],[22.886847,42.652127],[22.90593,42.666436],[22.9269,42.661631],[22.922633,42.659934],[22.922869,42.654904],[22.929212,42.645267],[22.945021,42.650442],[22.943562,42.652914],[22.957808,42.659045],[22.961983,42.656871],[22.974668,42.667944],[22.977348,42.680266],[22.974204,42.680436],[22.969374,42.689776],[22.962163,42.68728],[22.955345,42.701419],[22.954919,42.724376],[22.960112,42.733397],[22.965793,42.737682],[22.971839,42.731529],[22.980572,42.735899],[22.989902,42.733994],[22.99491,42.741416],[22.984953,42.747907],[22.984778,42.751261],[22.988926,42.752753],[22.987142,42.7561],[23.003722,42.755677],[23.011774,42.752064],[23.015425,42.755102],[23.036143,42.755535],[23.04091,42.754313],[23.031923,42.747644],[23.034258,42.736997],[23.032035,42.733432],[23.040846,42.723363],[23.037386,42.717373],[23.044102,42.715419],[23.046534,42.71755],[23.046518,42.715205],[23.056482,42.712718],[23.051106,42.702238],[23.053083,42.69962],[23.066343,42.698535],[23.066836,42.694222],[23.079482,42.695094],[23.08585,42.691858],[23.09763,42.695721],[23.101822,42.693085],[23.10582,42.6949076],[23.103011,42.689464],[23.109842,42.684171],[23.109502,42.674395],[23.115134,42.672611],[23.118341,42.667234],[23.124004,42.670012],[23.143511,42.667125],[23.146647,42.662314],[23.167622,42.658503],[23.172619,42.653284],[23.172897,42.649017],[23.162697,42.641582],[23.175133,42.623922],[23.170414,42.617918],[23.171841,42.613645],[23.152989,42.605476],[23.148693,42.599033],[23.139663,42.594176],[23.14295,42.587514],[23.149244,42.58695],[23.15373,42.592118],[23.186454,42.592342],[23.224221,42.583009],[23.230463,42.574971],[23.238119,42.570669],[23.248994,42.571454],[23.25789,42.563859],[23.28419,42.562952],[23.287932,42.554187],[23.292915,42.552085],[23.299579,42.541993],[23.294454,42.534349],[23.279517,42.533458],[23.267568,42.524874],[23.259227,42.514819],[23.254403,42.496763],[23.233968,42.491362],[23.232977,42.482806],[23.221066,42.472803],[23.220701,42.466047],[23.203832,42.469393],[23.195902,42.467003],[23.187932,42.459019],[23.178643,42.459566],[23.164727,42.463304],[23.155486,42.479075],[23.126722,42.487977],[23.101609,42.515782],[23.089758,42.524057],[23.080583,42.524938],[23.079953,42.530154],[23.068019,42.533211],[23.067013,42.53994],[23.050771,42.551262],[23.049408,42.555797],[23.034618,42.557795],[23.029907,42.57118],[23.025631,42.567765],[23.011162,42.570045],[23.004362,42.567328],[22.995304,42.571656],[22.976098,42.574171],[22.971104,42.579367],[22.944045,42.57678],[22.946493,42.582593],[22.939193,42.581384],[22.934737,42.587789],[22.914541,42.582244],[22.883511,42.590128],[22.88017,42.586203],[22.865296,42.598453],[22.854905,42.599475],[22.858121,42.609663],[22.86486,42.61736],[22.860431,42.625228],[22.854511,42.626191]]]]}},{"type":"Feature","properties":{"slug":"yambol","name_bg":"Ямбол","name_en":"Yambol","source":"OpenStreetMap contributors, ODbL 1.0"},"geometry":{"type":"MultiPolygon","coordinates":[[[[26.425131,42.495657],[26.434365,42.495889],[26.432734,42.498693],[26.436548,42.498505],[26.436741,42.504347],[26.442862,42.504297],[26.443093,42.509512],[26.447901,42.51368],[26.460777,42.507869],[26.47838,42.506801],[26.481086,42.506966],[26.4857586,42.5163273],[26.503773,42.51326],[26.502521,42.523238],[26.512548,42.529588],[26.49648,42.534908],[26.497721,42.551417],[26.501146,42.553068],[26.504771,42.54764],[26.508403,42.552693],[26.516557,42.553774],[26.5322982,42.5486454],[26.531033,42.545466],[26.536156,42.541769],[26.533492,42.538278],[26.537607,42.536269],[26.53352,42.525075],[26.527318,42.521864],[26.532905,42.519027],[26.531363,42.514117],[26.524778,42.513323],[26.522534,42.509876],[26.527709,42.508687],[26.553842,42.515536],[26.561646,42.506498],[26.568831,42.487853],[26.54993,42.464752],[26.540851,42.468037],[26.533776,42.460406],[26.535202,42.457174],[26.528372,42.455294],[26.51304,42.458733],[26.507232,42.450459],[26.511666,42.43014],[26.515745,42.425825],[26.511421,42.424595],[26.510474,42.430721],[26.500288,42.433742],[26.476168,42.430773],[26.476632,42.427221],[26.467204,42.417355],[26.4417079,42.4399306],[26.431885,42.439461],[26.42538,42.446455],[26.431152,42.453619],[26.435911,42.453269],[26.434632,42.458901],[26.441289,42.459093],[26.437657,42.474233],[26.424921,42.491865],[26.425131,42.495657]]]]}}]}