{"type":"FeatureCollection","features":[{"type":"Feature","properties":{"slug":"bankya","name_bg":"Банкя","name_en":"Bankya","source":"OpenStreetMap contributors, ODbL 1.0"},"geometry":{"type":"MultiPolygon","coordinates":[[[[23.05645,42.712732],[23.071647,42.725255],[23.07662,42.733435],[23.083163,42.733817],[23.087176,42.737651],[23.092261,42.73448],[23.116819,42.740032],[23.145366,42.73694],[23.158486,42.728122],[23.15765,42.726034],[23.163341,42.725124],[23.164061,42.728419],[23.174498,42.730937],[23.187906,42.730097],[23.18922,42.726193],[23.196801,42.7283],[23.2017829,42.7187438],[23.1964568,42.7162398],[23.2049498,42.7156475],[23.2032701,42.7142138],[23.206603,42.7102705],[23.2030954,42.7050928],[23.1968168,42.7033285],[23.1951661,42.6956029],[23.1897721,42.691033],[23.1877342,42.6947899],[23.1811033,42.6930391],[23.1761985,42.6957042],[23.168134,42.6911764],[23.1581963,42.6943271],[23.1571124,42.6976553],[23.1501442,42.6861585],[23.139523,42.6772979],[23.1430878,42.6675496],[23.13731,42.666398],[23.124004,42.670012],[23.118341,42.667234],[23.115134,42.672611],[23.109502,42.674395],[23.109842,42.684171],[23.103011,42.689464],[23.10582,42.6949076],[23.101822,42.693085],[23.09763,42.695721],[23.08585,42.691858],[23.079482,42.695094],[23.066836,42.694222],[23.066271,42.698553],[23.053813,42.699161],[23.051106,42.702238],[23.05645,42.712732]]]]}},{"type":"Feature","properties":{"slug":"ilinden","name_bg":"Илинден","name_en":"Ilinden","source":"OpenStreetMap contributors, ODbL 1.0"},"geometry":{"type":"MultiPolygon","coordinates":[[[[23.2727203,42.7099846],[23.2804065,42.7174225],[23.2948662,42.72299],[23.3032644,42.7189641],[23.2977344,42.7148459],[23.3045814,42.7079409],[23.2992251,42.7072166],[23.2977356,42.7019888],[23.2727203,42.7099846]]]]}},{"type":"Feature","properties":{"slug":"iskar","name_bg":"Искър","name_en":"Iskar","source":"OpenStreetMap contributors, ODbL 1.0"},"geometry":{"type":"MultiPolygon","coordinates":[[[[23.3815205,42.6740278],[23.3940506,42.6717827],[23.4010833,42.6861897],[23.4160672,42.682394],[23.4232423,42.6889584],[23.438038,42.68719],[23.4369003,42.6909254],[23.4420965,42.6901382],[23.4409304,42.6865555],[23.4430089,42.6864928],[23.4528324,42.6897067],[23.4571587,42.6649686],[23.4471076,42.6679937],[23.4398683,42.658721],[23.4550891,42.655455],[23.4480208,42.6331966],[23.4156767,42.6372702],[23.4008134,42.6436959],[23.3815205,42.6740278]]]]}},{"type":"Feature","properties":{"slug":"izgrev","name_bg":"Изгрев","name_en":"Izgrev","source":"OpenStreetMap contributors, ODbL 1.0"},"geometry":{"type":"MultiPolygon","coordinates":[[[[23.3361748,42.6725019],[23.3475935,42.683446],[23.367879,42.668971],[23.3364692,42.6575682],[23.3361748,42.6725019]]]]}},{"type":"Feature","properties":{"slug":"krasna-polyana","name_bg":"Красна поляна","name_en":"Krasna poliana","source":"OpenStreetMap contributors, ODbL 1.0"},"geometry":{"type":"MultiPolygon","coordinates":[[[[23.2302537,42.6916071],[23.2303624,42.708938],[23.2514067,42.7058181],[23.2727203,42.7099846],[23.2977356,42.7019888],[23.2944668,42.6937895],[23.2852199,42.6889084],[23.2802473,42.6921868],[23.2741128,42.685396],[23.2648742,42.6915081],[23.243144,42.6926102],[23.2356881,42.6857219],[23.2302537,42.6916071]]]]}},{"type":"Feature","properties":{"slug":"krasno-selo","name_bg":"Красно село","name_en":"Krasno selo","source":"OpenStreetMap contributors, ODbL 1.0"},"geometry":{"type":"MultiPolygon","coordinates":[[[[23.2692022,42.6742226],[23.2774007,42.6835666],[23.2741128,42.685396],[23.2802473,42.6921868],[23.2839829,42.6891213],[23.2936667,42.6893139],[23.3152571,42.6967094],[23.3139738,42.6894705],[23.3012962,42.684481],[23.3026195,42.6794546],[23.2880388,42.6652481],[23.2692022,42.6742226]]]]}},{"type":"Feature","properties":{"slug":"kremikovtsi","name_bg":"Кремиковци","name_en":"Kremikovci","source":"OpenStreetMap contributors, ODbL 1.0"},"geometry":{"type":"MultiPolygon","coordinates":[[[[23.3547713,42.7270544],[23.3529827,42.7390016],[23.3565189,42.7471331],[23.3771698,42.7545513],[23.3809598,42.7606901],[23.3837169,42.752256],[23.3989765,42.7406772],[23.3969967,42.7375393],[23.4059104,42.7348496],[23.4076448,42.7307393],[23.4161664,42.7295702],[23.4159301,42.7253098],[23.4203819,42.7217917],[23.4364168,42.7193336],[23.4378066,42.7157938],[23.4416984,42.7183048],[23.4393181,42.7207917],[23.4424624,42.7306074],[23.4458627,42.7305153],[23.453828,42.7434775],[23.4658528,42.7495487],[23.4548394,42.7604415],[23.4619012,42.7740071],[23.4597431,42.7801263],[23.4702755,42.7934939],[23.4721518,42.8151237],[23.4802664,42.8234145],[23.4803858,42.8329154],[23.4971404,42.8517767],[23.4962947,42.8592962],[23.50602,42.863972],[23.513676,42.862683],[23.524492,42.856019],[23.527254,42.849086],[23.533888,42.847917],[23.530977,42.843222],[23.534277,42.843083],[23.533133,42.839572],[23.539405,42.831978],[23.556533,42.8276],[23.566077,42.829689],[23.577254,42.84695],[23.59405,42.851661],[23.604494,42.8604],[23.624724,42.854287],[23.632511,42.856556],[23.635797,42.85248],[23.6362884,42.8386694],[23.65083,42.84531],[23.665859,42.839494],[23.677224,42.844419],[23.678666,42.834345],[23.6656904,42.8312992],[23.6639709,42.8251441],[23.6542115,42.8177955],[23.6536932,42.8081599],[23.6468391,42.8001186],[23.6493032,42.794562],[23.6460573,42.7883217],[23.6485871,42.7809759],[23.646552,42.7758032],[23.6412967,42.772891],[23.6402071,42.767989],[23.6332656,42.7717284],[23.6242248,42.7673025],[23.6193621,42.76018],[23.6239635,42.7554298],[23.6192013,42.7542113],[23.615255,42.7478975],[23.6132734,42.7359056],[23.6083692,42.733852],[23.6101739,42.7300439],[23.6003281,42.7161276],[23.5973776,42.7162103],[23.5943712,42.7099065],[23.559877,42.708776],[23.559711,42.706387],[23.5481568,42.7039898],[23.543631,42.693723],[23.545987,42.680656],[23.534263,42.681787],[23.531919,42.685043],[23.520636,42.684465],[23.520874,42.679534],[23.49732,42.675075],[23.4941699,42.6865398],[23.4810023,42.6902577],[23.4821104,42.6939012],[23.4618662,42.7035916],[23.4631812,42.706877],[23.4497149,42.7077327],[23.4527473,42.6882568],[23.4409304,42.6865555],[23.4420965,42.6901382],[23.4369003,42.6909254],[23.438038,42.68719],[23.4227985,42.6890467],[23.4263332,42.6975449],[23.3992447,42.7046766],[23.4031628,42.7061106],[23.3921312,42.7097091],[23.3920113,42.7147483],[23.3743689,42.7163183],[23.3547713,42.7270544]]]]}},{"type":"Feature","properties":{"slug":"lyulin","name_bg":"Люлин","name_en":"Lyulin","source":"OpenStreetMap contributors, ODbL 1.0"},"geometry":{"type":"MultiPolygon","coordinates":[[[[23.1960696,42.6973488],[23.1968168,42.7033285],[23.2030954,42.7050928],[23.206603,42.7102705],[23.2032701,42.7142138],[23.2049498,42.7156475],[23.1964568,42.7162398],[23.2017829,42.7187438],[23.196801,42.7283],[23.2121248,42.7451882],[23.2478141,42.7347872],[23.2561126,42.7457421],[23.2689208,42.7341394],[23.2619923,42.7267684],[23.2799341,42.7169954],[23.2705805,42.7083721],[23.2638798,42.7066703],[23.2173594,42.70731],[23.1960696,42.6973488]]]]}},{"type":"Feature","properties":{"slug":"lozenets","name_bg":"Лозенец","name_en":"Lozenets","source":"OpenStreetMap contributors, ODbL 1.0"},"geometry":{"type":"MultiPolygon","coordinates":[[[[23.3094856,42.6724549],[23.321778,42.6784701],[23.3208067,42.6833383],[23.3307107,42.686622],[23.3417676,42.67748],[23.3361882,42.6726835],[23.333703,42.6330679],[23.3124634,42.641719],[23.3165029,42.6592953],[23.3128414,42.6576118],[23.3139177,42.6707651],[23.3094856,42.6724549]]]]}},{"type":"Feature","properties":{"slug":"mladost","name_bg":"Младост","name_en":"Mladost","source":"OpenStreetMap contributors, ODbL 1.0"},"geometry":{"type":"MultiPolygon","coordinates":[[[[23.3579568,42.6243538],[23.3645568,42.6379001],[23.3651021,42.6497559],[23.3699389,42.6616492],[23.367879,42.668971],[23.3761336,42.675014],[23.3815205,42.6740278],[23.4008134,42.6436959],[23.418558,42.6369201],[23.4194084,42.6321371],[23.4170798,42.6230416],[23.4054621,42.6200794],[23.4049902,42.6224745],[23.3579568,42.6243538]]]]}},{"type":"Feature","properties":{"slug":"nadezhda","name_bg":"Надежда","name_en":"Nadejda","source":"OpenStreetMap contributors, ODbL 1.0"},"geometry":{"type":"MultiPolygon","coordinates":[[[[23.2797027,42.7657098],[23.2829968,42.7745508],[23.2885415,42.7764207],[23.2897977,42.7826731],[23.3130005,42.779554],[23.3170816,42.7802293],[23.3187553,42.7867451],[23.323151,42.786786],[23.3213692,42.7838716],[23.3324676,42.7838716],[23.3471161,42.7780156],[23.3256822,42.7480164],[23.3103892,42.7165737],[23.302445,42.7163695],[23.3032644,42.7189641],[23.2864335,42.726373],[23.2863563,42.7316117],[23.2976499,42.7382451],[23.291915,42.7431071],[23.3040227,42.7532351],[23.2934838,42.7571596],[23.2849817,42.7562998],[23.2797027,42.7657098]]]]}},{"type":"Feature","properties":{"slug":"novi-iskar","name_bg":"Нови Искър","name_en":"Novi Iskar","source":"OpenStreetMap contributors, ODbL 1.0"},"geometry":{"type":"MultiPolygon","coordinates":[[[[23.2423481,42.8176759],[23.254276,42.829168],[23.249629,42.840189],[23.255423,42.849799],[23.249608,42.850814],[23.252101,42.853715],[23.246771,42.86597],[23.250953,42.871797],[23.260079,42.874976],[23.264401,42.885264],[23.263871,42.892859],[23.278298,42.896559],[23.28839,42.894262],[23.3067882,42.8820352],[23.313338,42.885337],[23.320222,42.88347],[23.317991,42.879938],[23.324331,42.871681],[23.3297154,42.8720046],[23.342657,42.864036],[23.341978,42.856012],[23.36689,42.852541],[23.3740325,42.8477849],[23.365735,42.841802],[23.36907,42.839638],[23.376273,42.84007],[23.386081,42.847592],[23.406463,42.848526],[23.406279,42.851749],[23.410524,42.851515],[23.414451,42.856444],[23.435061,42.861617],[23.4407384,42.8691481],[23.448499,42.871992],[23.453448,42.863509],[23.462713,42.862207],[23.469294,42.874206],[23.474936,42.874391],[23.481848,42.871197],[23.482834,42.865298],[23.487897,42.864879],[23.489424,42.860488],[23.4975322,42.8582689],[23.4971404,42.8517767],[23.4803858,42.8329154],[23.4802664,42.8234145],[23.4718576,42.8141921],[23.4734794,42.8092361],[23.4697486,42.7918693],[23.4597431,42.7801263],[23.4619012,42.7740071],[23.454864,42.7603013],[23.4658528,42.7495487],[23.453828,42.7434775],[23.4458627,42.7305153],[23.4424624,42.7306074],[23.4393181,42.7207917],[23.4416984,42.7183048],[23.4378066,42.7157938],[23.4364168,42.7193336],[23.4203819,42.7217917],[23.4159301,42.7253098],[23.4161664,42.7295702],[23.4076448,42.7307393],[23.4059104,42.7348496],[23.3969967,42.7375393],[23.3989765,42.7406772],[23.3837169,42.752256],[23.3809598,42.7606901],[23.37596,42.7571616],[23.3383946,42.7606764],[23.3471161,42.7780156],[23.3324676,42.7838716],[23.3213692,42.7838716],[23.323151,42.786786],[23.3184372,42.7864647],[23.3170816,42.7802293],[23.2948352,42.780377],[23.2897381,42.7827101],[23.2921553,42.7880619],[23.2850568,42.7895613],[23.2874455,42.7934901],[23.2762963,42.8022897],[23.2723439,42.7987201],[23.2633776,42.8023172],[23.251401,42.7962364],[23.25105,42.806089],[23.2423481,42.8176759]]]]}},{"type":"Feature","properties":{"slug":"oborishte","name_bg":"Оборище","name_en":"Oborishte","source":"OpenStreetMap contributors, ODbL 1.0"},"geometry":{"type":"MultiPolygon","coordinates":[[[[23.3217389,42.6977169],[23.3238709,42.7049163],[23.3330831,42.7052227],[23.3535145,42.6979564],[23.3552226,42.6927462],[23.3515846,42.6865365],[23.34475,42.6924616],[23.3217389,42.6977169]]]]}},{"type":"Feature","properties":{"slug":"ovcha-kupel","name_bg":"Овча купел","name_en":"Ovcha kupel","source":"OpenStreetMap contributors, ODbL 1.0"},"geometry":{"type":"MultiPolygon","coordinates":[[[[23.1423084,42.6668853],[23.139523,42.6772979],[23.1501442,42.6861585],[23.1571124,42.6976553],[23.1581963,42.6943271],[23.168134,42.6911764],[23.1761985,42.6957042],[23.1811033,42.6930391],[23.1877342,42.6947899],[23.1897721,42.691033],[23.2118211,42.7063027],[23.229984,42.7089692],[23.2303108,42.690264],[23.2332803,42.6868422],[23.2356881,42.6857219],[23.2416678,42.6924539],[23.2585469,42.6902033],[23.2614284,42.692258],[23.2774007,42.6835666],[23.2692022,42.6742226],[23.2725734,42.6718045],[23.2627763,42.6662528],[23.2597867,42.665166],[23.2518635,42.6716378],[23.2408268,42.6706316],[23.1867529,42.6463635],[23.1730337,42.6491995],[23.167622,42.658503],[23.146709,42.662289],[23.1423084,42.6668853]]]]}},{"type":"Feature","properties":{"slug":"pancharevo","name_bg":"Панчарево","name_en":"Pancharevo","source":"OpenStreetMap contributors, ODbL 1.0"},"geometry":{"type":"MultiPolygon","coordinates":[[[[23.2853669,42.561699],[23.2906767,42.5667129],[23.287873,42.5752025],[23.2892615,42.5845424],[23.2930641,42.5868292],[23.3112459,42.5888179],[23.3116679,42.5946235],[23.3177147,42.590745],[23.3477975,42.5995958],[23.3789182,42.6200868],[23.3882858,42.6230655],[23.4049902,42.6224745],[23.4054621,42.6200794],[23.416902,42.62295],[23.4193404,42.6259929],[23.418558,42.6369201],[23.4480208,42.6331966],[23.4550891,42.655455],[23.4398683,42.658721],[23.4471076,42.6679937],[23.4571587,42.6649686],[23.4497149,42.7077327],[23.4631812,42.706877],[23.4618662,42.7035916],[23.4821104,42.6939012],[23.4810023,42.6902577],[23.4941699,42.6865398],[23.4940277,42.6803317],[23.4974955,42.6810426],[23.497323,42.67513],[23.49393,42.67443],[23.493507,42.660058],[23.497937,42.657668],[23.496362,42.649646],[23.5036635,42.6487061],[23.5007067,42.6395134],[23.5073775,42.6378648],[23.510173,42.6435003],[23.531915,42.638786],[23.534375,42.637014],[23.53072,42.624996],[23.542227,42.624822],[23.559492,42.61624],[23.557989,42.593809],[23.554472,42.586733],[23.556673,42.575174],[23.5658671,42.5691195],[23.559294,42.561854],[23.564841,42.557505],[23.565594,42.555176],[23.551262,42.55042],[23.554925,42.547702],[23.554629,42.543048],[23.549846,42.533441],[23.567727,42.528173],[23.586953,42.505134],[23.594278,42.50272],[23.605334,42.506023],[23.614755,42.500097],[23.62466,42.502596],[23.630115,42.500362],[23.622103,42.488955],[23.641852,42.47987],[23.643445,42.471631],[23.648906,42.469338],[23.649226,42.459464],[23.6605656,42.4557386],[23.65887,42.445377],[23.660825,42.439086],[23.665301,42.436284],[23.662348,42.421739],[23.646271,42.421795],[23.631964,42.415433],[23.604364,42.413188],[23.590409,42.421167],[23.574562,42.416542],[23.571075,42.41733],[23.57015,42.421265],[23.563083,42.421576],[23.554725,42.414317],[23.545778,42.412531],[23.533164,42.427884],[23.535252,42.437013],[23.529586,42.446724],[23.536274,42.453462],[23.535862,42.462294],[23.539747,42.468471],[23.534949,42.474042],[23.541624,42.475415],[23.536349,42.478656],[23.538861,42.481363],[23.509616,42.498626],[23.509968,42.512231],[23.46532,42.517216],[23.453321,42.525234],[23.446558,42.524722],[23.425144,42.511177],[23.429493,42.509744],[23.429839,42.505206],[23.442365,42.501297],[23.440192,42.494449],[23.447942,42.480399],[23.425707,42.473576],[23.4134208,42.4639996],[23.408189,42.471788],[23.385431,42.484232],[23.376059,42.494178],[23.36286,42.495113],[23.331153,42.508205],[23.311554,42.528304],[23.301337,42.524653],[23.296748,42.53131],[23.290175,42.532721],[23.296947,42.536078],[23.299962,42.544436],[23.287932,42.554187],[23.2853669,42.561699]]]]}},{"type":"Feature","properties":{"slug":"poduyane","name_bg":"Подуяне","name_en":"Poduyane","source":"OpenStreetMap contributors, ODbL 1.0"},"geometry":{"type":"MultiPolygon","coordinates":[[[[23.3330831,42.7052227],[23.352742,42.7158676],[23.3547713,42.7270544],[23.3743689,42.7163183],[23.3920113,42.7147483],[23.3921312,42.7097091],[23.4031628,42.7061106],[23.3737955,42.6959949],[23.3776681,42.6866741],[23.3641048,42.6954138],[23.3330831,42.7052227]]]]}},{"type":"Feature","properties":{"slug":"serdika","name_bg":"Сердика","name_en":"Serdika","source":"OpenStreetMap contributors, ODbL 1.0"},"geometry":{"type":"MultiPolygon","coordinates":[[[[23.2977344,42.7148459],[23.3110361,42.7172877],[23.3256822,42.7480164],[23.3471161,42.7780156],[23.3383946,42.7606764],[23.37596,42.7571616],[23.3797449,42.7606542],[23.3771698,42.7545513],[23.3565189,42.7471331],[23.3529827,42.7390016],[23.3551405,42.7278607],[23.3520638,42.7227653],[23.3529318,42.7161537],[23.346588,42.7113679],[23.3318003,42.7048769],[23.304939,42.7059264],[23.2977344,42.7148459]]]]}},{"type":"Feature","properties":{"slug":"slatina","name_bg":"Слатина","name_en":"Slatina","source":"OpenStreetMap contributors, ODbL 1.0"},"geometry":{"type":"MultiPolygon","coordinates":[[[[23.3475935,42.683446],[23.3550219,42.6920782],[23.3546764,42.6968934],[23.3641048,42.6954138],[23.3776681,42.6866741],[23.3737955,42.6959949],[23.3847816,42.6980732],[23.3914671,42.7030498],[23.3992447,42.7046766],[23.4263332,42.6975449],[23.4254058,42.6911131],[23.4160672,42.682394],[23.4010833,42.6861897],[23.3940506,42.6717827],[23.3761336,42.675014],[23.367879,42.668971],[23.3475935,42.683446]]]]}},{"type":"Feature","properties":{"slug":"sredets","name_bg":"Средец","name_en":"Sredec","source":"OpenStreetMap contributors, ODbL 1.0"},"geometry":{"type":"MultiPolygon","coordinates":[[[[23.3190077,42.6889848],[23.3217389,42.6977169],[23.34475,42.6924616],[23.3515846,42.6865365],[23.3417676,42.67748],[23.3307107,42.686622],[23.3208067,42.6833383],[23.3217579,42.6887418],[23.3190077,42.6889848]]]]}},{"type":"Feature","properties":{"slug":"studentski","name_bg":"Студентски","name_en":"Studentski","source":"OpenStreetMap contributors, ODbL 1.0"},"geometry":{"type":"MultiPolygon","coordinates":[[[[23.333703,42.6330679],[23.3364692,42.6575682],[23.3694717,42.6678372],[23.3645568,42.6379001],[23.3579568,42.6243538],[23.333703,42.6330679]]]]}},{"type":"Feature","properties":{"slug":"triaditsa","name_bg":"Триадица","name_en":"Triadica","source":"OpenStreetMap contributors, ODbL 1.0"},"geometry":{"type":"MultiPolygon","coordinates":[[[[23.2830543,42.6537809],[23.2875225,42.6646762],[23.3026195,42.6794546],[23.3012962,42.684481],[23.3139738,42.6894705],[23.3152571,42.6967094],[23.3210847,42.6957682],[23.3190077,42.6889848],[23.3217579,42.6887418],[23.321778,42.6784701],[23.3094856,42.6724549],[23.3139177,42.6707651],[23.3128414,42.6576118],[23.3165029,42.6592953],[23.3124634,42.641719],[23.2830543,42.6537809]]]]}},{"type":"Feature","properties":{"slug":"vazrazhdane","name_bg":"Възраждане","name_en":"Vazrajdane","source":"OpenStreetMap contributors, ODbL 1.0"},"geometry":{"type":"MultiPolygon","coordinates":[[[[23.2871286,42.6901129],[23.2949304,42.6941522],[23.2992251,42.7072166],[23.3238709,42.7049163],[23.3210847,42.6957682],[23.314004,42.6969017],[23.295815,42.6897209],[23.2871286,42.6901129]]]]}},{"type":"Feature","properties":{"slug":"vitosha","name_bg":"Витоша","name_en":"Vitosha","source":"OpenStreetMap contributors, ODbL 1.0"},"geometry":{"type":"MultiPolygon","coordinates":[[[[23.13943,42.591575],[23.152989,42.605476],[23.171841,42.613645],[23.170414,42.617918],[23.175252,42.623508],[23.165253,42.63531],[23.164176,42.643128],[23.1730337,42.6491995],[23.1940427,42.6476158],[23.1986778,42.6528361],[23.2093966,42.6548602],[23.2102657,42.6579495],[23.2454274,42.671567],[23.2518635,42.6716378],[23.2597867,42.665166],[23.2725734,42.6718045],[23.2880388,42.6652481],[23.2830543,42.6537809],[23.3524562,42.6254797],[23.3882858,42.6230655],[23.3789182,42.6200868],[23.3477975,42.5995958],[23.3177147,42.590745],[23.3116679,42.5946235],[23.3112459,42.5888179],[23.292921,42.5867535],[23.2892615,42.5845424],[23.287873,42.5752025],[23.2906767,42.5667129],[23.2855267,42.5616809],[23.25789,42.563859],[23.248994,42.571454],[23.238119,42.570669],[23.230463,42.574971],[23.224221,42.583009],[23.209201,42.584941],[23.198292,42.59015],[23.15373,42.592118],[23.146383,42.586655],[23.13943,42.591575]]]]}},{"type":"Feature","properties":{"slug":"vrabnitsa","name_bg":"Връбница","name_en":"Vrabnitsa","source":"OpenStreetMap contributors, ODbL 1.0"},"geometry":{"type":"MultiPolygon","coordinates":[[[[23.2004742,42.7710185],[23.212327,42.787477],[23.217334,42.78428],[23.241777,42.796497],[23.247832,42.795055],[23.249221,42.798205],[23.251401,42.7962364],[23.2633776,42.8023172],[23.2723439,42.7987201],[23.2743153,42.8025708],[23.2804691,42.8002874],[23.2874455,42.7934901],[23.2850568,42.7895613],[23.2921553,42.7880619],[23.2885415,42.7764207],[23.2829968,42.7745508],[23.279094,42.7676253],[23.2822325,42.7582436],[23.3040227,42.7532351],[23.291915,42.7431071],[23.2975381,42.7379868],[23.2862461,42.731463],[23.2864335,42.726373],[23.2948662,42.72299],[23.2799341,42.7169954],[23.2619923,42.7267684],[23.2689208,42.7341394],[23.2561126,42.7457421],[23.2478141,42.7347872],[23.2121248,42.7451882],[23.213856,42.753748],[23.218414,42.75661],[23.209455,42.761066],[23.212708,42.763727],[23.206331,42.767044],[23.207525,42.771899],[23.2004742,42.7710185]]]]}}]}